lon,id,lat,operationStatus,stationNameKana,stationNameEng,stationType,postalCode,closingDate,url,fillablePressure,addressKana,stationName,tel,addressJp,openingHours,payment,information,updateDateTime
130.2595972,0000300026,33.5811503,0,ドクタードライブセルフイトテンスイソステーション,ENEOS Dr.Drive Self Ito Station,固定式（オンサイト）,819-0367,営業日：水～日 定休日：月・火・祝日,https://www.eneos.co.jp,82MPa,フクオカケンフクオカシニシクサイトイッチョウメ,ENEOS Dr.Driveセルフ伊都店,092-836-8981,福岡県福岡市西区西都１－１８－１５,13:00-16:30,現金／クレジットカード,※6/1（水）より、定休日を変更いたします。（月・火・祝日→火・水・祝日）,2022-05-19T15:00:10Z
130.4844866,0000300039,33.7411957,0,ドクタードライブセルフコガテンスイソステーション,ENEOS Dr.Drive Self Koga Station,固定式（オンサイト）,811-3115,営業日：月、水、金～日、祝日（火、木除く） 定休日：火、木,https://www.eneos.co.jp,82MPa,フクオカケンコガシクボ,ENEOS Dr.Driveセルフ古賀店,092-710-8770,福岡県古賀市久保１２６９－１１,09:30-17:00,現金／クレジットカード,,2022-05-19T15:00:13Z
130.407043,0000800001,33.6168456,0,サイブガスヒガシハマスイソステーション,saibugasuhigasihamasuisosuteshon,固定式（オンサイト）,812-0055,営業日：月・火・木・金・土曜日 定休日：水・日曜日・祝日・年末年始,,82MPa,フクオカケンフクオカシヒガシクヒガシハマ,西部ガス東浜水素ステーション,092-645-2760,福岡県福岡市東区東浜２－９－１１８,９：３０～１７：００,掛売・クレジットカード,7/3（土）9：30～営業を再開いたします。,2022-05-19T08:00:02Z
130.4182303,0000200006,33.6057198,0,イワタニスイソステーションフクオカケンチョウ,Iwatani Hydrogen Refueling Station in Fukuoka prefecture,移動式,812-8577,営業日：月～金　 定休日：土・日・祝日・年末年始,http://www.iwatani.co.jp/jpn/,82MPa,フクオカケンフクオカシハカタクヒガシコウエン,イワタニ水素ステーション 福岡県庁,070-2285-1149,福岡県福岡市博多区東公園７番７号,月：10:30～12:00、13:00～16:00、火～金 ： 8：30～12:00、13:00～16:00（月曜日が祝日の場合は、火曜日の営業時間が10:30～12:00、13:00～16:00となります）,クレジットカード,"※ お支払いはクレジットカードでお願いします。
※ 営業はカレンダーの通り、土日祭が休業です。
※ 月曜日は１０：３０から営業です。
",2022-05-19T07:00:03Z
130.6418393,0001100002,33.7525294,0,フクオカミヤタ,Fukuoka Miyata Hydrogen Fueling Station,固定式（オフサイト）,823-0016,営業日：金～水（週6日営業） 定休日：木、 および年末年始等特に定める日,[未設定],82,フクオカケンミヤワカシシロウマルアザハッチョウゲ,福岡宮田水素ステーション,0949-28-7102,福岡県宮若市四郎丸字八町下851-9,09:30-17:00,"クレジットカードのみ（JCB,VISA,Master,AMEX,TS CUBIC,Diners他）","                                                      





",2022-05-18T08:00:03Z
130.4555337,0000300035,33.6047215,0,ドクタードライブセルフフクオカクウコウテン,ENEOS Dr.Drive Self Fukuokakuukou Station,固定式（オフサイト）,811-2233,営業日：月～土 定休日：日祝日,https://www.eneos.co.jp,82MPa,フクオカケンカスヤグンシメチョウベップキタ,ENEOS Dr.Driveセルフ福岡空港店,092-260-9050,福岡県粕屋郡志免町別府北二丁目５－１５,9:30～17:00,現金、各種クレジット,※6/21（火）～7/4（月）の間、法定点検のため休業させていただきます。,2022-05-19T15:00:08Z
130.8035749,0000300042,33.8707117,0,ヤハタヒガシダスイソステーション,ENEOS ENEOS Yahatahigasida Hydrogen Station,固定式（オフサイト）,805-0071,営業日：月～火、金～日、祝日（水木を除く） 定休日：水木,https://www.eneos.co.jp,82MPa,フクオカケンキタキュウシュウシヤハタヒガシクヒガシダ,ENEOS 八幡東田水素ステーション,093-616-9577,福岡県北九州市八幡東区東田１－１－９,08:30-19:30,クレジットカード,※6/2（木）～6/14（火）の間、法定点検のため休業させていただきます。,2022-05-19T15:00:11Z
130.895506,0000200002,33.888045,0,イワタニスイソステーションコクラ,Iwatani Hydrogen Refueling Station in Kokura,固定式（オフサイト）,802-0021,営業日：月～水、金～日 定休日：木曜日、年末年始,http://www.iwatani.co.jp/jpn/,70MPa,フクオカケンキタキュウシュウシコクラキタタカハマ,イワタニ水素ステーション小倉,093-953-7507,福岡県北九州市小倉北区高浜1-4-30,月～水、金～日 ： 9：00～17:00,クレジットカード,"【営業時間変更のお知らせ】
※4月1日より、営業日　12～13時を閉店させて頂きます。
",2022-05-18T08:00:05Z
130.4864229,0000300038,33.5382357,0,ドクタードライブセルフダザイフインターテン,Dr.Drive Self Dazaifuinter Station,固定式（オンサイト）,816-0912,営業日：月～土 定休日：日祝日,https://www.eneos.co.jp,82MPa,フクオカケンオオノジョウシミカサガワ,ENEOS Dr.Drive セルフ太宰府インター店,092-586-5192,福岡県大野城市御笠川5-12-20,13:00～16:30,現金、各種クレジット,※5/6（金）より法定点検のため休業いたしております。営業再開時期につきましては判り次第、ご案内いたします。（当初営業再開予定の5/20（金）を延期させていただきます）,2022-05-19T15:00:11Z
141.4118235,0002800001,43.0207981,2,エアウォーターイドウシキスイソステーションサッポロ,air water mobile hydrogen station sapporo,移動式,062-0052,営業日：平日、土曜日 定休日：日曜日、祝日、指定日,https://awi-h2station.resv.jp/,70MPa,サッポロシトヨヒラクツキサムヒガシニジョウジュウロクチョウメ,エア・ウォーター移動式水素ステーション札幌,070-2308-9441,札幌市豊平区月寒東2条16丁目1-6,平日９：３０～１７：３０、土曜日９：３０～１２：４０,振込、クレジットカード（個人の方はクレジットカードのみ）,営業日は、充填予約サイトをご覧ください。,2022-04-07T09:26:22Z
130.2930796,0001100001,33.2617113,0,サガスイソステーション,Saga Station,固定式（オフサイト）,840-0805,営業日：金～水（週6日営業） 定休日：木、 および年末年始等特に定める日,,82,サガシコウノニシ,佐賀水素ステーション,0952-37-5946,佐賀市神野西1-822-14 （神野東一丁目交差点そば）,金～水：10:00～18:00　,"クレジットカード（JCB,VISA,Master,AMEX,TS CUBIC,Diners他）",,2022-05-18T09:00:03Z
130.5585043,0002400001,33.3418586,0,スイソステーションクルメ,suiso station kurume,固定式（オフサイト）,839-0804,営業日：月～金、日曜日 / 定休日：土曜日、祝日,https://www.fksanso.co.jp/hydrogenstation.html,82,フクオカケンクルメシミヤノジンマチワカマツ,水素ステーション久留米,0942-55-8996,福岡県久留米市宮ノ陣町若松1-7,月～金_9：30～16：30　日曜日_9：30~15:00,クレジットカードのみ,,2022-05-19T07:30:02Z
140.9837806,0002800002,42.3609102,2,ムロランシイドウシキスイソステーションクジランステーション,muroranshi mobile hydrogen station,移動式,050-0063,営業日：平日、土曜日（指定休日あり） 定休日：日曜日、祝日,https://awi-h2station.resv.jp/,70MPa,ムロランシコウホクチョウイッチョウメニバンチニジュウゴウ,室蘭市移動式水素ステーション「くじらんステーション」,090-7515-4571,室蘭市港北町1丁目2番20号,平日：9：００～１６：００　土曜日：9：００～１２：００,クレジット、振込（平日のみ現金可）,営業日は、充填予約サイトをご覧ください。,2022-04-07T09:25:37Z
131.8233135,0000200005,34.0219495,0,イワタニスイソステーションヤマグチシュウナン,Iwatani Hydrogen Refueling Station in Yamaguchisyuunan,固定式（オフサイト）,745-0814,営業日：月～水、金～日 定休日：木曜日、年末年始,http://www.iwatani.co.jp/jpn/,82MPa,ヤマグチケンシュウナンシコカイ,イワタニ水素ステーション山口周南,0834-33-8523,山口県周南市鼓海1丁目324-18,月～水、金～日 ： 9:00～12:00・13:00～17:00,クレジットカード,"【営業時間変更のお知らせ】
12時～13時を閉店させて頂きます。
",2022-05-18T08:00:06Z
132.376189,0000200045,34.3684797,0,イワタニスイソステーションヒロシマニシ,Iwatani Hydrogen Refueling Station in Hirosimanisi,固定式（オフサイト）,733-0842,営業日：月～水、金～日 定休日：木、年末年始,http://www.iwatanigas.co.jp/,82,ヒロシマケンヒロシマシニシクイノクチ,イワタニ水素ステーション 広島西,070-7813-0541,広島県広島市西区井口3-8-17,9：00～12：00、13：00～17：00,クレジットカード,"※ お支払いはクレジットカードでお願いします。
≪法定設備点検休業のご案内≫
2022年6月6日(月)～2022年6月12日(日)13：00 (予定)
※6月13日(月)から通常通り営業再開させていただきます。

",2022-05-18T08:00:06Z
132.6573413,0001700001,34.4662454,0,ヒガシヒロシマスイソステーション,HigashiHiroshima Hydrogen Station,移動式,739-0263,営業日：火～土 定休日：日・月曜日、祝日　広島トヨペットのカレンダーに一部準ずる,http://www.h-toyopet.com/shop/higashihiroshimasuiso/,82MPa,ヒロシマケンヒガシヒロシマシシワリュウツウ,東広島水素ステーション,082-433-6656,広島県東広島市志和流通1-70,１１：００～１８：００,クレジットカード,ご来店前にお電話ください。カレンダーは広島トヨペットＨＰに掲載しています。,2022-05-19T09:00:02Z
130.7394848,0000200046,32.7153277,0,イワタニスイソステーションクマモトミナミ,Iwatani Hydrogen Refueling Station in Kumamotominami,固定式（オフサイト）,861-4211,営業日：月～水、金～日 定休日：木、年末年始,http://www.iwatanigas.co.jp/,82,クマモトケンクマモトシジョウナンマチイマヨシノ,イワタニ水素ステーション 熊本南,070-7813-0542,熊本県熊本市南区城南町今吉野1246-1,9：00～12：00、13：00～17：00,クレジットカード,"営業時間: 9:00～17:00 ※12時～13時を休店させて頂きます。
定休日: 木曜日",2022-05-18T08:00:05Z
131.6741,0002900001,33.2400081,0,オオイタイービーエルスイソステーション,Oita EBL Hydrogen Station,移動式,870-0145,営業日：平日、土祝日 定休日：日曜日,http://www.suisostation.jp/,82,オオイタシオトヅマチイチバンジュウハチゴウ,大分ＥＢＬ水素ステーション,097-558-8855,大分市乙津町１番１８号,平日（10：00～16：00）、土祝日（10：00～12：00,クレジットカード,前日までに電話で予約ください。,2022-05-19T07:00:02Z
143.0101497,0003400001,43.1050002,1,シカオイスイソファームステーション,Shikaoi Hydrogen Farm Station,固定式（オフサイト）,081-0216,営業日：月・火・木・金・土曜日 定休日：水・日曜日,https://shikaoi-h2station.resv.jp/,70,ホッカイドウカトウグンシカオイチョウシカオイキタヨンセンゴバンチ,しかおい水素ファームステーション,070-2813-8240,北海道河東郡鹿追町鹿追北4線5番地,10時～17時,クレジットカード,,2022-04-20T00:41:32Z
133.9027793,0000200017,34.6058027,0,イワタニスイソステーションオカヤマミナミ,Iwatani Hydrogen Refueling Station in Okayamaminami,固定式（オフサイト）,701-0221,営業日：月～水、金～日 定休日：木曜日、年末年始,http://www.iwatanigas.co.jp/gas/station.html,82,オカヤマケンオカヤマシミナミクフジタ,イワタニ水素ステーション 岡山南,086-230-7773,岡山県岡山市南区藤田2094番地2,月～水、金～日 ： 9:00～12:00・13:00～17:00,クレジットカードのみ,"※ お支払いはクレジットカードでお願いします。
≪営業時間変更のお知らせ≫
12時～13時を閉店させて頂きます。
定休日：木曜日
",2022-05-18T08:00:08Z
130.5433443,0002300001,31.5452741,0,カゴシマスイソステーション,Kagoshima hydrogen station,固定式（オフサイト）,890-0072,営業日：火・水曜日、金～日曜日 定休日：月・木曜日,,82MPa,カゴシマシシンエイチョウ,かごしま水素ステーション,099-285-3939,鹿児島市新栄町７－１８,10時～17時,クレジットカードのみ,"※県外よりお越しになられる場合は一度ご連絡下さい。 ＧＷも通常通り営業いたします。





　",2022-05-18T08:00:04Z
134.078623,0002100001,34.3554871,0,タカマツテイサンカブシキガイシャイドウシキスイソステーション,TAKAMATSU TEISAN HYDROGEN STATION,移動式,760-0065,営業日：月曜～金曜 定休日：土曜、日曜、祝日,https://h2-takatei.jp/,82,カガワケンタカマツシアサヒマチ,高松帝酸株式会社　移動式水素ステーション,087-822-5220,香川県高松市朝日町5丁目14-1,10：00～16：30,クレジットカード,"事前予約制となります。
ＨＰより会員登録お願い致します。",2020-12-25T07:30:02Z
134.6802929,0000200039,34.8077191,0,イワタニスイソステーションヒョウゴヒメジ,Iwatani Hydrogen Refueling Station in HyougoHimeji,固定式（オフサイト）,672-8045,営業日：月～水曜日、金～日曜日 定休日：木曜日,http://www.iwatani.co.jp/jpn/,82,ヒョウゴケンヒメジシシカマクナカノダ,イワタニ水素ステーション 兵庫姫路,080-8508-8720,兵庫県姫路市飾磨区中野田1-69,9:00～12:00・13:00～17:00,クレジットカードのみ,"【営業時間のお知らせ】
営業時間: 9:00～17:00 ※12時～13時を休店させて頂きます。定休日: 木曜日",2022-05-18T08:00:05Z
136.2103593,0000200037,36.0950232,0,イワタニスイソステーションフクイトウミョウジ,Iwatani Hydrogen Refueling Station in FukuiToumyouji,固定式（オフサイト）,910-0063,営業日：月～水曜日、金～日曜日 定休日：木曜日,http://www.iwatani.co.jp/jpn/,82,フクイケンフクイシトウミョウジ,イワタニ水素ステーション 福井灯明寺,080-8508-8717,福井県福井市灯明寺4丁目704,9:00～12:00・13:00～17:00,クレジットカードのみ,"12～13時の時間帯に水素ガス運搬用大型車両が出入りします(月に3～4回の予定)。ご迷惑をお掛けしますが何卒ご了承下さい。
■営業時間：　9時～12時、13時～17時(12時～13時閉店）",2022-05-18T08:00:09Z
137.2404873,0002700001,36.7041052,0,スイソステーショントヤマ,hydrogen station toyama,固定式（オフサイト）,930-0835,営業日：月～土　　　 定休日：日曜　／　土曜・祝日（不定休）,https://t-suiso.jp/,79.5,トヤマケントヤマシカミフゴイッチョウメサンバンロクジュウキュウゴウ,水素ステーションとやま,076-464-6870,富山県富山市上冨居1丁目3番69号,10：00～16：00,"現金 or カード(VISA, Mastercardのみ）",予約優先です,2022-05-19T07:00:02Z
134.4748469,0003200003,34.1365686,0,トウアゴウセイスイソシャトルステーションイタノ,Toagosei H2 Shuttle Station Itano,移動式,779-0102,営業日：金曜日・土曜日・日曜日 定休日：　,,90,トクシマケンイタノグンイタノチョウカワバタアザアラテザキ,東亞合成H2水素シャトルステーションいたの,088-679-8733,徳島県板野郡板野町川端字新手崎36-1,10:00～14:00,クレジットカード,本日は、臨時休業いたします。ご利用を予定されていたお客様にはご迷惑をおかけしますが、よろしくお願いします。なお、水素充填をご希望の方は、水素ステーション徳島をご利用ください。,2022-05-15T01:13:13Z
135.1775797,0001100003,34.6706529,0,コウベシチノミヤ,Kobe-Shichinomiya,固定式（オフサイト）,652-0831,営業日：毎日 (*)一部時間帯において遠隔監視型セルフ運転 定休日：水曜午後閉店,https://industry.airliquide.jp/hydrogen-japan,82,コウベシヒョウゴクシチノミヤチョウ,神戸七宮水素ステーション,078-599-6591,神戸市兵庫区七宮町1-1-7,8:00 ～ 18:30,クレジットカードのみ,セルフ充填にはメンバーカードが必要。木～土・月曜の午前はセルフ、火・水曜はセルフのみ。詳細はHPでご確認を。https://industry.airliquide.jp/hydrogen-japan#self 電話が繋がらない時は052-746-8710,2022-05-19T09:30:02Z
134.5561498,0003200001,34.1148437,0,トウアゴウセイスイソステーショントクシマ,Toagosei H2 Station Tokushima,固定式（オフサイト）,771-0143,営業日：　 定休日：年中無休,,82,トクシマケントクシマシカワウチチョウナカジマ,東亞合成水素ステーション徳島,088-679-8733,徳島県徳島市川内町中島620番地の1,9:00～17:00,クレジットカード,ご利用の際は、来所前日16時00分までに電話にてご予約ください。,2022-05-19T08:00:03Z
134.5640197,0003200002,34.0647826,0,トウアゴウセイスイソシャトルステーションバンダイ,Toagosei H2 Shuttle Station Bandai,移動式,770-0941,営業日：火曜日・水曜日 定休日：　,,90,トクシマケントクシマシバンダイチョウ,東亞合成H2水素シャトルステーション万代,088-679-8733,徳島県徳島市万代町4丁目19番地4～6,10:00～14:00,クレジットカード,ご利用の際は、来所前日16時00分までに電話にてご予約ください。大雨・強風時は営業を中止する場合があります、水素ステーション徳島をご利用ください。,2022-05-18T05:00:02Z
139.0276592,0000200020,37.9013675,0,イワタニスイソステーションニイガタチュウオウ,Iwatani Hydrogen Refueling Station in Niigatachuou,固定式（オフサイト）,950-0961,営業日：月曜～水曜、金曜～日曜 （祝日営業） 定休日：木曜日、GW、年末年始,http://www.iwatani.co.jp/jpn/,82MPa,ニイガタケンニイガタシチュウオウクヒガシデキジマジュウイチバンジュウニゴウ,イワタニ水素ステーション新潟中央,025-385-7635,新潟県新潟市中央区東出来島11-12,9:00～12:00・13:00～17:00,クレジットカード,"
",2022-05-18T08:00:10Z
135.4471212,0000200019,34.7884594,0,イワタニスイソステーションオオサカイタミクウコウ,Iwatani hydrogen station Osaka Itami Airport,固定式（オフサイト）,560-0036,営業日：月～水曜日、金～日曜日 定休日：木曜日、年末年始（12/30～1/3）,http://www.iwatani.co.jp/jpn/,82 MPa,オオサカフトヨナカシホタルガイケニシマチサンチョウメ,イワタニ水素ステーション 大阪伊丹空港,06-4865-3650,大阪府豊中市蛍池西町三丁目64番2,9:00-17:00,クレジットカード,"営業時間: 9:00～17:00 定休日: 木曜日
　　　　　
     
　　　　　
　　　　　",2022-05-18T08:00:09Z
135.441451,0000200001,34.740006,0,イワタニスイソステーションアマガサキ,Iwatani Hydrogen Refueling Station in Amagasaki,固定式（オフサイト）,661-0965,営業日：月～土 定休日：日曜日、年末年始,http://www.iwatani.co.jp/jpn/,70MPa,ヒョウゴケンアマガサキシツギヤ,イワタニ水素ステーション尼崎,06-6494-1855,兵庫県尼崎市次屋3-3-16,9:00～12:00・13:00～17:00,クレジットカード,"【営業時間変更のご案内】
※営業日　12～13時を閉店させて頂きます。
何卒よろしくお願いいたします。
定休日：日曜",2022-05-19T08:00:05Z
135.5563772,0000300021,34.8354883,0,ドクタードライブセルフイバラキインターテンスイソステーション,ENEOS ENEOS Dr.Drive self Ibaraki Inter Station,固定式（オンサイト）,567-0065,営業日：月、木～日　 定休日：火、水、祝日 ,http://www.noe.jx-group.co.jp,82MPa,オオサカフイバラキシカミゴオリ,ENEOS Ｄｒ．Ｄｒｉｖｅセルフ茨木インター店,072-665-8165,大阪府茨木市上郡１丁目６－１１,13:00-16:30,現金／クレジットカード,"※営業日：平日（月曜日～金曜日）、日曜日　営業時間：１３：００～１６：３０
",2022-05-19T15:00:06Z
135.7459863,0000600002,34.9657541,0,カミトバスイソステーション,KAMITOBA SUISO STATION,移動式,601-8127,営業日：月・火・木・金・土・日（祝日の場合も営業） 定休日：水（祝日の場合も休業）、12/31～1/3,,70MPa,キョウトシミナミクキタハナナチョウ,上鳥羽水素ステーション,075-661-8901,京都市南区上鳥羽北花名町１４,9:00～17:00（月・火・木・金）、13:00～17:00（土・日・祝）,クレジットカードのみ対応可,"営業日　月・火・木・金：9～17時
　　　　土・日・祝　　：13～17時
定休日　水（祝日含む）、年末年始（12/31～1/3）",2022-05-19T07:59:27Z
135.7161505,0000300024,34.9307432,0,ドクタードライブセルフヒシカワステーション,ENEOS Dr.Drive Self Hishikawa Station,固定式（オフサイト）,612-8487,営業日：月曜日～土曜日 定休日：日祝日,http://www.noe.jx-group.co.jp,82MPa,キョウトフキョウトシフシミクハヅカシヒシカワチョウ,ENEOS Ｄｒ．Ｄｒｉｖｅセルフ菱川店,075-874-1521,京都府京都市伏見区羽束師菱川町２１２－３,月～金 08:30-19:30　土 9:30～11:45・13:00～17:00,現金／クレジットカード,※6/1（水）より、平日のみ開店閉店時刻を30分前倒し、営業時間を月曜日～金曜日（8～19時）土曜日（9:30～11:45、13～17時）といたします。,2022-05-19T15:00:06Z
135.5806263,0000600001,34.7879975,0,キタオオサカスイソステーション,KITAOSAKA SUISO STATION,固定式（オンサイト）,567-0853,営業日：月・火・木・金・土・日（祝日の場合も営業） 定休日：水（祝日の場合も休業）、12/31～1/3,,70MPa,オオサカフイバラギシミヤジマ,北大阪水素ステーション,072-634-1220,大阪府茨木市宮島2-4-8,9:00～17:00（月・火・木・金）、13:00～17:00（土・日・祝）,クレジットカードのみ対応可,"営業日　月・火・木・金：9～17時
　　　　土・日・祝　　：13～17時
定休日　水（祝日含む）、年末年始（12/31～1/3）",2022-05-19T08:00:52Z
135.6386835,0000300020,34.8028494,0,ヒラカタハシリダニスイソステーション,Hirakatahashiridani ,固定式（オンサイト）,573-0063,営業日：月、水～土、第２・４日曜、祝日（火、第１・３・５日曜除く） 定休日：火、第１・３・５日曜（祝日含む）,https://www.eneos.co.jp,82MPa,オオサカフヒラカタシハシリダニ,ENEOS　枚方走谷水素ステーション,072-807-5439,大阪府枚方市走谷１－２７－４５,11:00～17:00,クレジット,※4/25（月）より当面の間、設備メンテナンスのため休業いたします。営業再開時期については判り次第ご案内いたします。,2022-05-19T15:00:07Z
135.5031124,0000200013,34.6837113,0,イワタニスイソステーションオオサカホンマチ,Iwatani Hydrogen Refueling Station in Osaka Honmachi,移動式,541-0053,営業日：月～金 定休日：土、日、祝日、年末年始,http://www.iwatani.co.jp/jpn/,82,オオサカフオオサカシチュウオウクホンマチ,イワタニ水素ステーション 大阪本町,06-6484-5474,大阪府大阪市中央区本町３－１－７,月～金 ： 9:00～12:00、 ： 13:00～16:00,クレジットカード,"≪営業時間のお知らせ≫
営業時間: 9:00～16:00
 ※12時～13時を休店させて頂きます。
定休日: 土・日・祝日



　

",2022-05-19T07:00:03Z
135.7369632,0000200030,34.8795087,0,イワタニスイソステーションキョウトクミヤマ,Iwatani Hydrogen Refueling Station in KyotoKumiyama,固定式（オフサイト）,613-0036,営業日：月・火曜日、木～日曜日 定休日：水曜日、年末年始,http://www.iwatani.co.jp/jpn/,82,キョウトフクゼグンクミヤマチョウタイムカイノ,イワタニ水素ステーション 京都久御山,070-2900-4381,京都府久世郡久御山町田井向野16-1,9:00～12:00・13:00～17:00,クレジットカード,"≪営業時間のお知らせ≫
営業時間：9時～17時　　※12時～13時を休店させて頂きます。
定休日　：水曜日
【法定点検による休業のお知らせ】
6月13日（月～6月18日（土）の期間、法定検査実施の為休業させていただきます。
　",2022-05-19T08:00:05Z
137.2254901,0001300005,36.1382899,0,セイリュウパワーエナジーオーケービーヒダタカヤマスイソステーション,okb hidatakayama suiso station,固定式（オフサイト）,506-0058,営業日：月・火・木・金曜日　第一・四土曜日 定休日：水曜日、第二・三土曜日、日曜日、祝祭日,http://www.sp-ene.co.jp/,82MPa,ギフケンタカヤマシヤマダマチ,清流パワーエナジーOKBひだ高山水素ステーション,058-214-2399,岐阜県高山市山田町1645-1,月・金曜 13時～16時(ラスト15時半）、火・木・第一・四土曜 10時～12時(ラスト11時半),現金・請求書掛売（初回利用時は現金）,"【予約・問合せ】
◆5月2日メンテナンスの為、14時迄の営業とさせていただきます。ご迷惑おかけして申し訳ありません。
◆ご予約後の来場をお願い致します。
◆お問合せ・予約電話番号　058-214-2399
",2022-05-19T03:00:02Z
135.2340811,0000200008,34.4357433,0,イワタニスイソステーションカンサイコクサイクウコウ,Iwatani Hydrogen Refueling Station in Kansaikokusaikuko,固定式（オフサイト）,549-0011,営業日：月～水曜日、金～日曜日 定休日：木曜日、年末年始,http://www.iwatani.co.jp/jpn/,82MPa,オオサカフセンナングンタジリチョウセンシュウクウコウナカ,イワタニ水素ステーション 関西国際空港,072-456-6151,大阪府泉南郡田尻町泉州空港中11-1,9:00～12:00・13:00～17:00,クレジットカード,"【営業時間変更のお知らせ】
4月1日より12時～13時を閉店させて頂きます。
何卒宜しくお願い致します。",2022-05-18T08:00:06Z
135.8884948,0000200007,34.9847838,0,イワタニスイソステーションオオツ,Iwatani Hydrogen Refueling Station in Otsu,固定式（オンサイト）,520-0846,営業日：月～水曜日、金～日曜日 定休日：木曜日、年末年始,http://www.iwatani.co.jp/jpn/,82MPa,シガケンオオツシフジミダイ,イワタニ水素ステーション 大津,077-537-0647,滋賀県大津市富士見台５番９号,9：00～17:00,クレジットカード,"営業時間: 9:00～17:00 定休日: 木曜日
",2022-05-18T08:00:07Z
135.535932,0000200012,34.681762,0,イワタニスイソステーションオオサカモリノミヤ,Iwatani Hydrogen Refueling Station in Osaka Morinomiya,固定式（オフサイト）,536-0025,営業日：月～水、金～日、祝 定休日：木曜日、年末年始,http://www.iwatani.co.jp/jpn/,82MPa,オオサカフオオサカシジョウトウクモリノミヤ,イワタニ水素ステーション　大阪森之宮,06-6923-8830,大阪府大阪市城東区森之宮１－６－１０２, 9：00～21:00　,クレジットカード,"【営業時間】９：００～２１：００
【定休日】　木曜日

",2022-05-18T12:00:02Z
135.4675818,0000200014,34.6217567,0,イワタニスイソステーションオオサカスミノエ,Iwatani Hydrogen Refueling Station in Osaka Suminoe,固定式（オフサイト）,559-0021,営業日：月～土 定休日：日曜日、年末年始,http://www.iwatani.co.jp/jpn/,82MPa,オオサカシスミノエクシバタニ,イワタニ水素ステーション 大阪住之江,06-6681-0636,大阪府大阪市住之江区柴谷1-1-64,月～土 ： 9:00～12:00・13:00～17:00,クレジットカード,"【お知らせ】
≪営業時間変更のお知らせ≫
営業日12時～13時を閉店させて頂きます。
何卒宜しく御願い致します。

",2022-05-19T08:00:04Z
135.5614572,0000200031,34.5368444,0,イワタニスイソステーションサカイミハラ,Iwatani Hydrogen Refueling Station in SakaiMihara,固定式（オフサイト）,587-0002,営業日：月・火曜日、木～日曜日 定休日：水曜日,http://www.iwatani.co.jp/jpn/,82,オオサカフサカイシミハラククロヤマ,イワタニ水素ステーション 堺美原,070-2900-4375,大阪府堺市美原区黒山150-1,9:00～12:00・13:00～17:00,クレジットカード,"≪営業時間のお知らせ≫
営業時間: 9:00～17:00 ※12時～13時を休店させて頂きます。定休日: 水曜日
",2022-05-19T08:00:06Z
135.1967445,0000200021,34.2292633,0,イワタニスイソステーションワカヤマオオダ,Iwatani hydrogen station Wakayama-Oda,固定式（オフサイト）,640-8323,営業日：月〜水、金～日 定休日：木、年末年始,http://www.iwatani.co.jp/jpn/,82,ワカヤマケンワカヤマシオオダヨンチョウメ,イワタニ水素ステーション 和歌山太田,073-471-1077,和歌山県和歌山市太田4-4-9,月〜水、金～日;9:00～12:00・13:00～17:00,クレジットカード,"≪営業時間変更のお知らせ≫
12時～13時を閉店させて頂きます。
何卒宜しく御願い致します。
",2022-05-18T08:00:04Z
135.2113759,0000200047,34.1995131,0,イワタニスイソステーションワカヤマミナミインター,Iwatani Hydrogen Refueling Station in Wakayamaminamiinter,固定式（オフサイト）,641-0004,営業日：月～火、木～日 定休日：水、年末年始,http://www.iwatanigas.co.jp/,82MPa,ワカヤマケンワカヤマシワダ,イワタニ水素ステーション 和歌山南インター,080-8303-2366,和歌山県和歌山市和田159番-1,9:00～12:00、13:00～17:00,クレジットカード,"営業時間: 9:00～17:00 ※12時～13時を休店させて頂きます。定休日: 水曜日
",2022-05-19T08:00:06Z
135.8181008,0000200038,34.6681425,0,イワタニスイソステーションナラダイアンジ,Iwatani Hydrogen Refueling Station in NaraDaianji,固定式（オフサイト）,630-8133,営業日：月～水曜日、金～日曜日 定休日：木曜日,http://www.iwatani.co.jp/jpn/,82,ナラケンナラシダイアンジ,イワタニ水素ステーション 奈良大安寺,080-8508-8719,奈良県奈良市大安寺1-24-8,9:00～12:00・13:00～17:00,クレジットカードのみ,"≪営業時間についてのお知らせ≫
営業日の12時～13時は閉店いたします。

※お支払方法：クレジットカードのみ",2022-05-18T08:00:08Z
136.6056114,0001300003,35.2905928,0,セイリュウパワーエナジーオーケービーオオガキヨウロウスイソステーション,okb oogakiyourousuiso staion,移動式,503-1382,営業日：月・火・金・土（第二・四）曜日 定休日：水・木・日曜日・祝祭日,http://www.sp-ene.co.jp/,82MPa,ギフケンヨウロウグンヨウロウチョウフナツキ,清流パワーエナジーOKB大垣養老水素ステーション,058-214-2399,岐阜県養老郡養老町船附2828-2,月・火・金　11時～16時（ラスト15：30）、土　11時～13時（ラスト12：30）,①現金　②振込（初回は現金のみ。振込は法人のお客様に限ります。初回来店時、新規取引申込書(HPからﾀﾞｳﾝﾛｰﾄﾞ可)ご記入提出後、請求書発行、お振込となります。）,"【予約・問合せ】
◆ご予約後の来場をお願い致します。
◆予約電話番号　058-214-2399",2022-05-17T07:00:02Z
138.2468775,0000200043,36.6563476,0,イワタニスイソステーションナガノキタナガイケ,Iwatani Hydrogen Refueling Station in Naganokitanagaike,固定式（オフサイト）,381-0025,営業日：月～水、金～日 定休日：木、年末年始,http://www.iwatanigas.co.jp/,82,ナガノケンナガノシキタナガイケ,イワタニ水素ステーション 長野北長池,070-7813-0539,長野県長野市北長池1250-1,9：00～12：00、13：00～17：00,クレジットカード,"【営業のご案内】
■営業時間：　9時～12時、13時～17時
                       (12時～13時閉店）
定休日　木曜日",2022-05-18T08:00:10Z
136.8063023,0001300001,35.3828878,0,セイリュウパワーエナジーギナンスイソステーション,SPE ginan suiso station,移動式,500-8055,営業日：月・水・木・金・土曜（第一・三・五） 定休日：火・日曜・祝祭日,http://www.sp-ene.co.jp/,82MPa,ギフケンハシマグンギナンチョウヘイジマキュウチョウメゴジュウキュウバンチ,清流パワーエナジー岐南水素ステーション,058-214-2399,岐阜県羽島郡岐南町平島9丁目59番地,月・水・木・金　10時～17時（ラスト16：30）　、土（第一・三・五）　10時～13時半（ラスト13：00）　 ,①現金　②振込（初回は現金のみ。振込は法人のお客様に限ります。初回来店時、新規取引申込書(HPからﾀﾞｳﾝﾛｰﾄﾞ可)ご記入提出後、請求書発行、お振込となります。）,"【予約・問合せ】
◆ご予約後の来場をお願い致します。
◆予約電話番号　058-214-2399",2022-05-19T08:00:03Z
136.8115504,0000200035,35.3006293,0,イワタニスイソステーションアイチイチノミヤ,Iwatani Hydrogen Refueling Station in Aichi-Ichinomiya,固定式（オフサイト）,491-0866,営業日：月～水曜日、金～日曜日 定休日：木曜日,http://www.iwatani.co.jp/jpn/,82,アイチケンイチノミヤシシロサキドオリ,イワタニ水素ステーション 愛知一宮,080-8508-8716,愛知県一宮市城崎通7-1,9:00～17:00,クレジットカードのみ,"■営業時間：　9時～12時、13時～17時(12時～13時閉店）

",2022-05-18T08:00:09Z
136.7794713,0000300051,35.2589354,0,イナザワイシバシスイソステーション,ENEOS Inazawa Ishibashi Hydrogen,固定式（オンサイト）,492-8271,営業日：月・木～日、祝日（火、水除く） 定休日：火・水（祝日含む）,http://www.eneos.co.jp,８２Ｍｐa,アイチケン　イナザワシ　イシバシ３－１,ENEOS 稲沢石橋水素ステーション,0587-22-6025,愛知県稲沢市石橋３－１,9:30-17:00,クレジットカード,"●4/1より営業時間を9:30～17:00に変更いたします。
",2022-05-19T15:00:08Z
136.8269797,0000500004,35.2664311,0,ニモヒススイソステーションイナザワ,Nimohyss Hydrogen Station Inazawa,移動式,492-8022,営業日：火～木・土曜日 定休日：金・日・月・祝,http://www.nimohyss.com/,82MPa,アイチケンイナザワシアカイケサカハタチョウ,ニモヒス水素ステーション稲沢,070-3516-5579,愛知県稲沢市赤池坂畑町７５,火曜日 11：00～15：00　  水木土曜日  9：00～15：00 ※火曜日が祝日の週は、水曜日の営業時間が11:00～15:00となります。大型連休にかかる週の営業日時は変動することがあります。,クレジットカードのみ,"
お問い合わせの際にはステーションまで直接ご連絡ください。
",2022-05-19T06:00:02Z
136.9230123,0001100006,35.3368102,0,オオグチスイソステーション,Oguchi Hydrogen Station,固定式（オフサイト）,480-0142,営業日：日・月・水・木・金・土曜日　（週6日営業） 定休日：火曜日のみ定休日,https://industry.airliquide.jp/hydrogen-japan,82,アイチケンニワグンオオグチチョウナカオグチサンチョウメサンイチナナバン,大口水素ステーション,0587-22-5036,愛知県丹羽郡大口町中小口3丁目317番,11:30～19:00,クレジットカード,"＜営業のご案内＞
営業日：水・木・金・土・日・月（祝日も営業）
営業時間：AM11:30 ～ PM7:00
定休日：火、特に定める日",2022-05-19T10:00:03Z
136.845927,0001100009,35.2584444,0,キタナゴヤスイソステーション,Kitanagoya Hydrogen Station,固定式（オフサイト）,481-0036,営業日：金・土・日・月・火曜日（週5日営業） 定休日： 水・木曜日,https://industry.airliquide.jp/hydrogen-japan,82,アイチケンキタナゴヤシヤマノコシテンジンヒガシハチジュウゴ,北名古屋水素ステーション,0568-48-8510,愛知県北名古屋市山之腰天神東８５,11:30～19:00,クレジットカード各種,"＜営業のご案内＞
営業日：金・土・日・月・火（祝日も営業）
営業時間：AM11:30 ～ PM7:00
定休日：水・木、特に定める日",2022-05-17T10:00:02Z
137.1698375,0001300004,35.4976663,0,セイリュウパワーエナジーヤオツスイソステーション,seiryu power energy yaotu suiso station,移動式,505-0422,営業日：火曜日 定休日：月・水・木・金・土・日曜日、祝祭日,http://www.sp-ene.co.jp/,82MPa,ギフケンカモグンヤオツチョウクタミツガノキ,清流パワーエナジー八百津水素ステーション,058-214-2399,岐阜県加茂郡八百津町久田見栂ノ木5233,火　11時半～15時（ラスト14：30）,①現金　②振込（初回は現金のみ。振込は法人のお客様に限ります。初回来店時、新規取引申込書(HPからﾀﾞｳﾝﾛｰﾄﾞ可)ご記入提出後、請求書発行、お振込となります。）,"【問合せ】
◆ご予約後の来場をお願い致します。
◆問い合わせ電話番号　058-214-2399


",2022-05-17T06:00:03Z
136.7920558,0000300040,35.1726972,0,ドクタードライブセルフシッポウシモダスイソステーション,ENEOS Dr.Drive Self Shipposhimoda Station,固定式（オフサイト）,497-0012,営業日：火曜日～日曜日 定休日：月・祝日,https://www.eneos.co.jp,82MPa,アイチケンアマシシッポウチョウシモダシモサイトウジ,ENEOS Ｄｒ．Ｄｒｉｖｅセルフ七宝下田ＳＳ,052-446-8704,愛知県あま市七宝町下田下才当治３８番,０８：３０　～　１９：３０,現金／クレジットカード,●5/12（木）～5/24（火）は法定定期自主検査のため休業いたします。,2022-05-19T15:00:09Z
136.5696745,0000200036,34.9785399,0,イワタニスイソステーションミエヨッカイチ,Iwatani Hydrogen Refueling Station in MieYokkaichi,固定式（オフサイト）,512-0934,営業日：月～水曜日、金～日曜日 定休日：木曜日,http://www.iwatani.co.jp/jpn/,82,ミエケンヨッカイチシカワシマチョウ,イワタニ水素ステーション 三重四日市,080-8508-8718,三重県四日市市川島町6523-1,9:00～12:00・13:00～17:00,クレジットカードのみ,■営業時間：　9時～12時、13時～17時(12時～13時閉店）,2022-05-18T08:00:07Z
136.9465496,0001100010,35.2238358,0,カスガイスイソステーション,Kasugai Hydrogen Station,固定式（オフサイト）,486-0946,営業日：土・日・月・火・水・木曜日（週6日営業） 定休日：金曜日のみ定休日,https://industry.airliquide.jp/hydrogen-japan,82,アイチケンカスガイシカチガワチョウニシサンノヨンジュウナナ,春日井水素ステーション,0568-27-6505,愛知県春日井市勝川町西３－４９,11:30～19:00,クレジットカード各種,"営業時間：11:30～19:00
定休日：金曜日",2022-05-19T10:00:03Z
136.6178086,0001200001,34.9390512,0,ミエスイソステーションヨッカイチ,Mie Hydrogen Station Yokkaichi,移動式,510-0867,営業日：月曜～水曜 定休日：木曜～日曜,http://mie-suiso.co.jp,82 MPa （注：82MPa到達を保証するものではありません。）,ミエケンヨッカイチシショウセンチョウニバンチ,みえ水素ステーション四日市,090-3308-3882,三重県四日市市松泉町２番地,月曜　10:00～16:30　火曜・水曜　9:30～16:30,クレジットカードのみ（現金の取り扱いはございません）,"混雑緩和のため、電話予約をお勧めいたします。
予約電話番号　090-3308-3882

設備点検その他の理由で、営業日・時間を変更することがあります。
",2022-05-17T06:00:02Z
136.842089,0001100008,35.1255948,0,ナゴヤナカガワスイソステーション,Nakagawa Hydrogen Station,固定式（オフサイト）,454-0936,営業日：年中無休（週7日営業） 定休日：お問い合わせください,https://industry.airliquide.jp/hydrogen-japan,82,アイチケンナゴヤシナカガワクタカスギチョウサンビャクニジュウ,名古屋中川水素ステーション,052-746-8710,愛知県名古屋市中川区高杉町320,　11:30～19:00,クレジットカード各種,"＊お客様にはご迷惑をお掛けしておりますが、現在2kgでの指定量充填で営業しております。
2022年5月22日は16:00で営業終了
2022年5月23日～5月29日まで設備点検でお休みとさせていただきます。

",2022-05-19T10:00:02Z
136.9053432,0000500005,35.179429,0,アイチケンチョウイドウシキスイソステーション,Aichi Prefectural Government Hydrogen Station,移動式,460-0001,営業日：月・金曜日 定休日：火・水・木、土・日・祝日,http://www.nimohyss.com/,82MPa,アイチケンナゴヤシナカクサンノマル,愛知県庁移動式水素ステーション,070-3516-5578,愛知県名古屋市中区三の丸３－１－２,月曜日12:00～16:00　金曜日10:00～16:00,クレジットカードのみ,,2022-05-16T07:00:03Z
136.9213854,0000200028,35.1721892,0,イワタニスイソステーションナゴヤアオイ,Iwatani Hydrogen Refueling Station in NagoyaAoi,固定式（オフサイト）,461-0004,営業日：月・火曜日、木～日曜日 定休日：水曜日、年末年始,http://www.iwatani.co.jp/jpn/,82,アイチケンナゴヤシヒガシクアオイ,イワタニ水素ステーション 名古屋葵,070-2900-4373,愛知県名古屋市東区葵1-16-3,9:00～12:00・13:00～17:00,クレジットカード,■営業時間：　9時～12時、13時～17時(12時～13時閉店）,2022-05-19T08:00:06Z
136.8775521,0000500007,35.1245643,0,ニモヒススイソステーシヨンシヨウワバシ,Nimohyss Hydrogen Station Showabashi,移動式,454-0058,営業日：火曜～金曜日 定休日：土・日・月・祝日,https://www.nimohyss.com/,82MPa,アイチケンナゴヤシナカガワクタマガワチヨウ,ニモヒス水素ステーション昭和橋,070-3516-5578,愛知県名古屋市中川区玉川町１ー１ー１,9:00～17:00,クレジットカードのみ,"営業時間について、お問い合わせがありましたら、ステーションまで直接ご連絡ください。
",2022-05-19T08:00:04Z
136.8958575,0000200018,35.1301164,0,イワタニスイソステーションアイチアツタニシ,Iwatani Hydrogen Refueling Station in AichiAtsutanishi,固定式（オフサイト）,456-0062,営業日：月～水曜、金～日曜 定休日：木曜,http://www.iwatani.co.jp/jpn/,82MPa,アイチケンナゴヤシアツタクタイホウ,イワタニ水素ステーション愛知熱田西,052-265-5625,愛知県名古屋市熱田区大宝2-3-10,9:00～12:00・13:00～17:00,"クレジットカード(Visa,Master,JCB,Amex,Diners)","■営業時間：　9時～12時、13時～17時(12時～13時閉店）


",2022-05-18T08:01:26Z
136.8786962,0000700003,35.1108996,0,ミナトアクルススイソステーション,minatoakurususuisostation,固定式（オフサイト）,455-0017,営業日：月曜～土曜  ／ 定休日：日曜、祝日、年末年始,,82,アイチケンナゴヤシミナトクカネカワチョウニノニジュウロク,みなとアクルス水素ステーション,052-661-1570,愛知県名古屋市港区金川町２－２６,月曜～土曜 ９：００～１６：００（２０２２/４月〜）,現金、クレジットカード,"【営業時間変更のお知らせ】
　2022年4月1日より営業時間を一部変更いたします。
  [ 変更後 ]
・営業日：月～土曜日 ９：００～１６：００
・休業日：日曜日、祝日、年末年始",2022-05-19T07:00:02Z
137.1919705,0001300002,35.3788885,0,セイリュウパワーエナジートキスイソステーション,SPE toki suiso station,移動式,509-5132,営業日：水・木曜日 定休日：月・火・金・土・日曜日・祝祭日　※水・木曜日以外は定休日となります。,http://www.sp-ene.co.jp/,82MPa,ギフケントキシイズミチョウオオトミアザヒガシヤマニゼロイチハチノゴ,清流パワーエナジー土岐水素ステーション,058-214-2399,岐阜県土岐市泉町大富字東山2018-5,水　12時～16時（ラスト15：30） 　、木　10時半～15時（ラスト14：30）,①現金　②振込（初回は現金のみ。振込は法人のお客様に限ります。初回来店時、新規取引申込書(HPからﾀﾞｳﾝﾛｰﾄﾞ可)ご記入提出後、請求書発行、お振込となります。）,"【予約・問合せ】
◆ご予約後の来場をお願い致します。
◆予約電話番号　058-214-2399

",2022-05-19T06:00:02Z
136.911246,0000400001,35.1375026,0,ナゴヤアツタスイソステーション,Nagoya Atsuta Hydrogen Station,固定式（オフサイト）,456-0023,営業日：火曜日～土曜日 定休日：日曜日、月曜日、祝日,http://www.toyotsu-airliquide.com/,82MPa,ナゴヤシアツタクムツノ,名古屋熱田水素ステーション,052-881-2221,名古屋市熱田区六野1-2-9 ,１０：００～１９：００,現金、クレジットカード,"◆ご来店の際,お電話及び、ご予約は不要です",2022-05-19T10:00:02Z
136.9243701,0001100011,35.0650724,0,ナゴヤオオダカスイソステーション,Nagoya Odaka Hydrogen Station,固定式（オフサイト）,459-8001,営業日：月曜から金曜（週5日営業）  定休日：土曜、日曜日,https://industry.airliquide.jp/hydrogen-japan,82,アイチケンナゴヤシミドリクオオダカチョウアザトラシンデンゴジュウノヨン,名古屋大高水素ステーション,052-627-7606,愛知県名古屋市緑区大高町字寅新田50-4,11:30～19:00,クレジットカード各種,"5/7より営業日が下記に変更となります。
月～金：　11:30～19:00　営業
土日：定休日
＊現在設備調整中につき、70MPa弱までの充填とさせていただいております。
",2022-05-19T10:00:03Z
136.9443468,0000200029,35.0778782,0,イワタニスイソステーションナゴヤナルミ,Iwatani Hydrogen Refueling Station in NagoyaNarumi,固定式（オフサイト）,458-0801,営業日：月曜日、水～日曜日 定休日：火曜日、年末年始,http://www.iwatani.co.jp/jpn/,82,アイチケンナゴヤシミドリクナルミチョウナカシオダ,イワタニ水素ステーション 名古屋鳴海,070-2900-4378,愛知県名古屋市緑区鳴海町中汐田49-1,9:00-17:00,クレジットカード,"≪営業時間変更のお知らせ≫
6月20日より12時～13時を閉店させて頂きます。
何卒宜しく御願い致します。
",2022-05-19T08:00:04Z
137.0593541,0000200027,35.1717241,0,イワタニスイソステーションアイチナガクテ,Iwatani Hydrogen Refueling Station in AichiNagakute,固定式（オフサイト）,480-1118,営業日：月～水曜日、金～日曜日 定休日：木曜日,http://www.iwatani.co.jp/jpn/,82,アイチケンナガクテシヨコミチ,イワタニ水素ステーション 愛知長久手,070-2900-4374,愛知県長久手市横道41-381,9:00～12:00・13:00～17:00,クレジットカード,■営業時間：　9時～12時、13時～17時(12時～13時閉店）,2022-05-18T08:00:08Z
137.0142876,0000700001,35.1300958,0,ニッシンスイソステーション,nissshinsuisostation,固定式（オフサイト）,470-0132,営業日：月曜～土曜  ／ 定休日：日、祝日、年末年始,,82MPa,アイチケンニッシンシウメモリチョウニシダメンヒャクイチノイチ,日進水素ステーション,052-800-1221,愛知県日進市梅森町西田面101-1,月曜～金曜９：３０～１７：００、土曜９：３０～１３：００,現金、クレジットカード,,2022-05-19T08:00:02Z
136.5089308,0001200002,34.6982751,0,ミエスイソステーションツ,Mie Hydrogen Station Tsu,移動式,514-0821,営業日：木曜・金曜 定休日：土曜～水曜,http://mie-suiso.co.jp,82 MPa （注：82MPa到達を保証するものではありません。）,ミエケンツシタルミキュウジュウキュウバンチイチ,みえ水素ステーション津,090-3308-3882,三重県津市垂水９９番地１,木曜　11:00～16:30　金曜　9:30～15:00,クレジットカードのみ（現金の取り扱いはございません）,"混雑緩和のため、電話予約をお勧めいたします。
予約電話番号　090-3308-3882

設備点検その他の理由で、営業日・時間を変更することがあります。
",2022-05-19T07:30:02Z
137.4181649,0003000001,35.4556457,0,ヤマモトセキユスイソステーションエナ,yamamotosekiyu H2 station ENA,固定式（オフサイト）,509-7201,営業日：月曜日から土曜日（土曜日、祝日半日営業あり） 定休日：日曜日,https://enacity.info/yamamoto/about-us.html,８２ＭＰａ,ギフケンエナシオオイチョウ,山本石油水素ステーション恵那,0573-26-1221,岐阜県恵那市大井町１２１３-１,月曜日から金曜日９：００～１７：００　土曜日、祝日９：００～１２：００（一部土曜日１７：００まで）,現金のみ、クレジットカード取扱不可,"カーナビでお越しの際は０５７３-２６-２１５１で検索してください
◆５月の土・祝日：１４日、２８日は１２時まで、２１日は１７時までの営業です
",2022-05-19T08:00:04Z
137.017355,0000300012,35.1011395,0,ドクタードライブセルフカミノクラテン,Dr.DriveSelfKaminokuraten,固定式（オンサイト）,458-0837,営業日：金曜日～火曜日 定休日：水曜日・木曜日・祝日,https://www.eneos.co.jp,82MPa,アイチケンナゴヤシミドリクアカマツ,ENEOS Dr.Driveセルフ神の倉店,052-680-9021,愛知県名古屋市緑区赤松８０２,９：００～１７：３０,現金、各種クレジットカード,　　　　　　　　　　　　　　　　,2022-05-19T15:00:14Z
136.956997,0000300049,35.0368525,0,エネオスオオブキョウエイステーション,ENEOS Oobukyouei  Hydrogen,固定式（オンサイト）,474-0074,営業日：月・木～日、祝日（火・水除く） 定休日：火・水（祝日含む）,https://www.eneos.co.jp,８２MPa,アイチケンオオブシキョウエイチョウ９－９－１０,ENEOS 大府共栄水素ステーション,0562-85-3871,愛知県大府市共栄町九丁目9番地の１０,08:30-19:30,クレジット,"●4/1より営業時間を8:30～19:30に変更いたしま
す。
",2022-05-19T15:00:15Z
137.1069441,0000300011,35.1196018,0,エネオスドクタードライブセルフミヨシガオカテン,ENEOS ENEOS Dr.Drive Miyoshigaoka Station,固定式（オフサイト）,470-0207,営業日：水～月、祝 定休日：火,http://www.noe.jx-group.co.jp,82MPa,アイチケンミヨシシウキガイチョウイッチョウダ,ENEOS Ｄｒ．Ｄｒｉｖｅセルフ三好ケ丘店,0561-76-4901,愛知県みよし市福谷町壱丁田１２－１,８：００　～　１９：００,現金／クレジットカード,"●営業日：水曜日～月曜日、祝日、営業時間：８：００～１９：００圧力：８２ＭＰａ


",2022-05-19T15:00:15Z
136.8134141,0000700004,34.865589,0,セントレアスイソステーション,centrair hydrogen station,固定式（オンサイト）,479-0881,営業日：土～水曜日  ／ 定休日：木、金曜日　※適宜見直し予定,,82,アイチケントコナメシセントレアサンチョウメハチバンチノジュウキュウ,セントレア水素ステーション,0569-84-0325,愛知県常滑市セントレア3丁目8番地の19,土～水11:00～18:00  　日9:30～18:00　※適宜見直し予定,クレジットカード　　,"【営業時間変更のお知らせ】
　2022年6月より営業時間を一部変更いたします。
  [ 変更後 ]
・営業日：土～水曜日 １１：００～１８：００
・休業日：木、金曜日",2022-05-18T09:00:02Z
137.0424902,0000300031,35.0528861,0,カリヤイガヤスイソステーション,Kariyaigaya Station,固定式（オンサイト）,448-0001,営業日：月曜日～土曜日 定休日：日、祝日,https://www.eneos.co.jp,82MPa,アイチケンカリヤシイガヤチョウキュウデンハラ,ENEOS 刈谷井ケ谷水素ステーション,0566-93-5257,愛知県刈谷市井ヶ谷町久伝原３７,11:30～18:00,各種クレジット,"●4/1より営業時間を11:30～18:00に変更します。
",2022-05-19T15:00:16Z
137.0337559,0000200009,35.0183203,0,イワタニスイソステーションアイチカリヤ,Iwatani Hydrogen Refueling Station in AichiKariya,固定式（オフサイト）,448-0002,営業日：月～水曜日、金～日曜日 定休日：木曜日、年末年始,http://www.iwatani.co.jp/jpn/,82,アイチケンカリヤシイチリヤマチョウフカダ,イワタニ水素ステーション 愛知刈谷,0566-91-0465,愛知県刈谷市一里山町深田３－３,9:00～21:00,クレジットカード,"※お支払いはクレジットカードでお願い致します.
",2022-05-18T12:00:02Z
137.0144613,0003100001,34.9957867,0,コウナンスイソステーションカリヤ,kounansuisostation kariya,固定式（オフサイト）,448-0029,営業日：月曜～土曜日 定休日：日曜日,0003100001,82(㎫),アイチケンカリヤシショウワチョウニチョウメジュウハチバンチ,光南水素ステーション 刈谷,0566-21-1450,愛知県刈谷市昭和町二丁目18番地,月～金曜日9:00～20:00　土曜日9:00～17:00,掛カード、クレジットカード,"営業時間のご案内
月～金曜日 9:00～20:00
　   土曜日 9:00～17:00
　　日曜日 定休日
※洗車受付時間は閉店30分前までとなります。

よろしくお願いいたします。
",2022-05-19T11:00:02Z
137.1235229,0000400002,35.0673597,0,トヨタインターチェンジスイソステーション,Toyota I.C. Hydrogen Station,固定式（オフサイト）,471-0841,営業日：日曜日～土曜 定休日：金曜,http://www.toyotsu-airliquide.com/,82MPa,トヨタシフカダチョウ,豊田インターチェンジ水素ステーション,0565-25-1880,豊田市深田町1-69-3, 9:00 ～ 17：00,現金、クレジットカード,"※　5/30（月）～6/10（金）
　　定期自主検査の為休業致します。



",2022-05-19T08:00:04Z
137.1589455,0000700002,35.0819692,0,トヨタエコフルタウンスイソステーション,toyota ecofultown suiso station,固定式（オンサイト）,471-0024,営業日：火曜～日曜  ／ 定休日：月曜（祝祭日は営業）、年末年始,,70MPa,アイチケントヨタシモトシロチョウサンチョウメジュウイチバンチ,とよたエコフルタウン水素ステーション,0565-41-6035,愛知県豊田市元城町3丁目11番地　（とよた Ecoful Town内）,１０：００～１２：００、１３：００～１７：００,クレジットカード,"【休業のお知らせ】
5/14（土）～当面の間、設備トラブルのため休業いたします。",2022-05-13T08:00:03Z
136.9658061,0001100012,34.9138514,0,エアリキードハンダカメサキスイソステーション,Handa Kamesaki Hydrogen Station,固定式（オンサイト）,475-0023,営業日：水曜日～日曜日（週5日営業） 定休日：月曜・火曜,https://industry.airliquide.jp/hydrogen-japan,82,アイチケンハンダシカメサキチョウ,エア・リキード半田亀崎水素ステーション,0569-89-0050,愛知県半田市亀崎町5丁目232番地,11:30～19:00,クレジットカード各種,5月20（金）から営業予定です,2022-05-09T04:51:54Z
137.1534987,0000700005,35.037337,0,トヨタホウエイスイソステーション,Toyota Houei ,固定式（オンサイト）,470-1207,営業日：日～土 定休日：年始（1/1、1/2）,※現在作成中,82MPa,アイチケントヨタシオシガモチョウナカハラ,豊田豊栄水素ステーション,0565-27-2107,愛知県豊田市鴛鴨町中原２６７－２,8:00～19:00（月～金）8:00～18:00（土・日）,クレジット,"【休業のお知らせ】
5/18（水）17:30～ 設備点検のため休業いたします。",2022-05-19T10:00:02Z
137.1103665,0000300023,34.9785002,0,アンジョウオザキステーション,Anjyoozaki Station,固定式（オンサイト）,446-0004,営業日：月～火、木～土、祝日（水、日曜除く） 定休日：水、日（祝日含む）,https://www.eneos.co.jp,82MPa,アイチケンアンジョウシオザキチョウゴウニシ,ENEOS 安城尾崎水素ステーション,0566-97-1691,愛知県安城市尾崎町郷西59,10:30～17:00,各種クレジット,"●4/1より、営業時間を10:30~17:00に変更します。
●5/20（金）～6/3（金）は、法定定期自主検査のため、休業いたします。
",2022-05-19T15:00:15Z
140.9076191,0000200015,38.2775109,0,イワタニスイソステーションミヤギセンダイ,IwataniHydrogenStationMiyagiSendai,固定式（オフサイト）,983-0836,営業日：月～水曜、金～日曜 定休日：木曜・年末年始,http://www.iwatani.co.jp/jpn/,82MPa,ミヤギケンセンダイシミヤギノクサイワイチョウ,イワタニ水素ステーション宮城仙台,022-349-4092,宮城県仙台市宮城野区幸町4-8-10,9:00～21:00,クレジットカードのみ,"
",2022-05-18T12:00:02Z
140.415453,0001800001,37.810084,0,フクシマイドウシキスイソステーション,FUKUSHIMA Mobile hydrogen Station,移動式,960-0231,営業日：火、金　　　　　　　　　　　　　　 定休日：月、水、木、土、日、祝日  ,http://fuku-hs.com/,82,フクシマケンフクシマシイイザカマチヒラノアザスギタ,ふくしま移動式水素ステーション,024-563-3144,福島県福島市飯坂町平野字杉田35番地,10：30－15：00　（予約制）,クレジットカード,"蓄圧・充填場所を郡山から浪江町に移転させていただくことになり、移設工事のため、休業させていただきます。ご迷惑をおかけして申し訳ございませんが、ご理解ご協力をお願いいたします。
休業期間　2022年3月中旬～5月上旬　　営業再開予定　5月中旬",2022-03-18T06:00:02Z
137.1800212,0000300010,34.9264584,0,エネオスドクタードライブセルフオカザキハネテン,ENEOS Dr.Drive Self Okazaki-hane Station,固定式（オンサイト）,444-0813,営業日：月曜日～土曜日、 定休日：日祝日,https://www.eneos.co.jp,82MPa,アイチケンオカザキシハネチョウアズキザカ,ENEOS　Dr.Drive セルフ岡崎羽根店,0564-64-6421,愛知県岡崎市羽根町小豆坂１４２－１,１１：００～１７：００,現金／クレジットカード,●設備点検のため当面の間、休業いたします。,2022-05-19T15:00:01Z
140.9046917,0000200040,38.1344534,0,イワタニスイソステーションセンダイクウコウ,Iwatani Hydrogen Refueling Station in Sendai airport,固定式（オフサイト）,989-2420,営業日：月～火、木～日 定休日：水、年末年始,http://www.iwatanigas.co.jp/,82,ミヤギケンイワヌマシクウコウニシ,イワタニ水素ステーション 仙台空港,070-7813-0536,宮城県岩沼市空港西1-33-2,9:00～12:00、13:00～17:00,クレジットカード,"
",2022-05-19T08:00:05Z
137.2734971,0001100005,34.8098598,0,ガマゴオリスイソステーション,Gamagori Hydrogen Station,固定式（オフサイト）,443-0014,営業日：金～水曜日（週6日営業） 定休日：木曜日,https://industry.airliquide.jp/hydrogen-japan,82MPa,アイチケンガマゴオリシカイヨウチョウニチョウメニバンチ,蒲郡水素ステーション,0533-95-5361,愛知県蒲郡市海陽町2丁目2番地,11:30～19:00,クレジットカード,"


",2022-05-18T10:00:02Z
139.0520642,0000200024,36.3482707,0,イワタニスイソステーショングンマタカサキ,Iwatani Hydrogen Refueling Station in GunmaTakasaki,固定式（オフサイト）,370-0011,営業日：月～水曜日、金～日曜日 定休日：木曜日,http://www.iwatanigas.co.jp/gas/station.html,82,グンマケンタカサキシキョウメマチ,イワタニ水素ステーション 群馬高崎,070-2900-4379,群馬県高崎市京目町1627-3,9:00～12:00・13:00～17:00,クレジットカード,※前のお客様の終了直後など、ご来店のタイミングにより15分程度お待ちいただく場合がございます。あらかじめご了承ください。,2022-05-18T08:00:10Z
137.4061722,0001100013,34.8255861,0,トヨカワインターチェンジスイソステーション,Toyokawa Hydrogen Station,固定式（オフサイト）,442-0038,営業日：日～金 定休日：土曜,https://industry.airliquide.jp/hydrogen-japan,82,アイチケントヨカワシコウヨウチョウ,エア・リキード豊川インターチェンジ水素ステーション,0533-95-0201,愛知県豊川市光陽町44番地,11：30～19：00,クレジットカード各種,6月1日（水）より営業開始予定,2022-05-11T09:33:59Z
140.3588266,0003300001,37.3681252,0,エネルギーパークコオリヤマミナミ,energy park koriyama minami,固定式（オフサイト）,963-0117,営業日：月曜日、火曜日、木曜日、金曜日、土曜日 定休日：日曜日、水曜日,0003300001,82,フクシマケンコオリヤマシアサカアライニチョウメゴジュウゴバンチ,エネルギーPark郡山南,024-946-6267,福島県郡山市安積荒井2丁目55番地,9：00～17：00,クレジットカード,,2022-05-19T08:00:03Z
138.5576816,0000200011,35.6671685,0,イワタニスイソステーションコウフ,Iwatani Hydrogen Refueling Station in Kofu,固定式（オフサイト）,400-0035,営業日：月～水曜日、金～日曜日 定休日：木曜日、年末年始,http://www.iwatani.co.jp/jpn/,82MPa,ヤマナシケンコウフシイイダ,イワタニ水素ステーション 甲府,055-225-6919,山梨県甲府市飯田3-2-34,9:00～17:00,クレジットカード,"【営業時間】9：00～17：00
【定休日】　木曜日

",2022-05-18T08:00:04Z
137.7913328,0000200044,34.7501986,0,イワタニスイソステーションハママツインター,Iwatani Hydrogen Refueling Station in Hamamatu Interchange,固定式（オフサイト）,431-3104,営業日：月～水、金～日 定休日：木、年末年始,http://www.iwatanigas.co.jp/,82,シズオカケンハママツシヒガシクキヘイチョウ,イワタニ水素ステーション 浜松インター,070-7813-0540,静岡県浜松市東区貴平町503-1,9：00～12：00、13：00～17：00,クレジットカード,"【営業のご案内】
■営業時間：　9時～12時、13時～17時(12時～13時閉店）
【法定点検休業のお知らせ】
2022年6月6日～6月12日(AM)の期間、法定点検休業を予定させていただきます。何卒ご理解のほどよろしくお願い申し上げます。",2022-05-18T08:00:08Z
139.6486688,0002500001,36.3106518,0,トチギスイソステーション,tochigi-hydorogen-station,固定式（オフサイト）,323-1107,営業日：月曜日～土曜日 定休日：日曜日,http://marui-t.jp/service/,82 MPa,トチギケントチギシフジオカマチオオアザニシアライ,丸伊運輸 とちぎ水素ステーション,0282-21-7821,栃木県栃木市藤岡町大田和1222-2,9時00分～17時00分,現金/クレジットカード,"★自動販売機 設置★　　　
※水素貯蔵量に限りがあるため、充填量を制限させて頂く場合があります。ご来店前に、お問い合わせいただけますと幸いです。

",2022-05-19T08:00:02Z
139.379035,0000300006,35.862617,0,エネオスドクタードライヴセルフサヤマネギシテン,ENEOS ENEOS Dr.Drive Self Sayama-negishi Station,固定式（オフサイト）,350-1325,営業日：平日（月曜日～土曜日） 定休日：日・祝日,http://www.noe.jx-group.co.jp,82MPa,サイタマケンサヤマシネギシ,ENEOS Ｄｒ．Ｄｒｉｖｅセルフ狭山根岸店,04-2941-6400,埼玉県狭山市根岸５０５－１,08:30-19:30,現金／クレジットカード,"営業日：月曜日～土曜日　営業時間：８：３０～１９：３０　圧力：８２ＭＰａ　現金のお取り扱いは９：００からとなります。

",2022-05-19T15:00:05Z
138.4049307,0001500001,34.9757243,0,スイソステーションシズオカ,Suiso Station Shizuoka,固定式（オンサイト）,422-8002,営業日：月曜、火曜、水曜、木曜、金曜、土曜 定休日：日曜、祝日,,８２MPa,シズオカケンシズオカシスルガクマガリカネニチョウメニバンニジュウゴウ,水素ステーション静岡,080-2608-4829,静岡県静岡市駿河区曲金２丁目２番２０号,１０：００～１８：００,クレジットカードのみ,,2022-05-19T09:05:03Z
139.3241079,0000200048,35.7738533,0,イワタニスイソステーショントウキョウハムラ,Iwatani Hydrogen Refueling Statiion in Tokyohamura,固定式（オフサイト）,205-0003,営業日：月～水、金～日 定休日：木曜日,http://www.iwatanigas.co.jp/,82,トウキョウトハムラシミドリガオカ,イワタニ水素ステーション 東京羽村,070-7819-6655,東京都羽村市緑ヶ丘3-1-1,9:00～12:00、13:00～17:00,クレジットカード,"5月18日（水）14:30～15:00は、充填できかねますので、ご了承ください。
2022年3月28日（月）オープンしました。
営業時間　9:00～17:00　（12:00～13:00休業）
定休日　木曜日
",2022-05-18T08:00:09Z
139.5931448,0000200025,35.9232328,0,イワタニスイソステーションサイタマニシ,Iwatani Hydrogen Refueling Station in SaitamaNishi,固定式（オフサイト）,331-0046,営業日：月・火曜日、木～日曜日 定休日：水曜日、年末年始,http://www.iwatani.co.jp/jpn/,82,サイタマケンサイタマシニシクミヤマエチョウ,イワタニ水素ステーション さいたま西,070-2900-4376,埼玉県さいたま市西区宮前町291-1,"9:00-12:00,13:00-17:00",クレジットカード,"
",2022-05-19T08:00:06Z
139.500087,0001100007,35.8002669,0,トコロザワマツゴウスイソステーション,Tokorozawa Matugo Hydrogen Station,固定式（オンサイト）,359-0027,営業日：火曜～日曜日（週6日営業） 定休日：月曜日（年末年始・当社指定休日含む）,https://industry.airliquide.jp/hydrogen-japan,82,サイタマケントコロザワシマツゴウニヒャクロクジュウゴノイチ,所沢松郷水素ステーション,04-2968-8019,埼玉県所沢市松郷２６５－１,12:30～20:00,クレジットカード,"営業時間：１２：３０　～　２０：００
定休日：月曜日に変更　※土日、祝日営業
TEL 04-2968-8019
重要
２月より
定休日：木曜日　→　月曜日　に変更
営業時間
１１：３０～１９：００
↓
１２：３０～２０：００までと変更になります。",2022-05-19T11:00:02Z
139.653059,0000300007,35.921749,0,エネオスドクタードライブセルフオオワダテン,ENEOS ENEOS Dr.Drivbe Self Oowada Station,固定式（オフサイト）,337-0053,営業日：月曜日～土曜日 定休日：日・祝日,http://www.noe.jx-group.co.jp,82MPa,サイタマケンサイタマシミヌマクオオワダチョウ,ENEOS Ｄｒ．Ｄｒｉｖｅセルフ大和田店,048-878-8150,埼玉県さいたま市見沼区大和田町１丁目１１５８,08:30-19:30,現金／クレジットカード,営業日：月曜日～土曜日　営業時間：８：３０～１９：３０　圧力：８２ＭＰａ　現金のお取り扱いは９：００からとなります。,2022-05-19T15:00:10Z
139.6784633,0000300032,35.9398275,0,サイタマミヌマステーション,Saitamaminuma Station,移動式,337-0011,営業日：月、 定休日：火・水・木・金・土日祝日、,https://www.eneos.co.jp,82MPa,サイタマケンサイタマシミヌマクミヤガトウ,ENEOS さいたま見沼水素ステーション（移動式ステーション）,080-1005-9646,埼玉県さいたま市見沼区宮ヶ谷塔１０４－２,１４：００～１６：００,クレジットカード（ＥＮＥＯＳホームページをご参照ください）,※９月末をもって現金決済を終了させていただきます。※１０月より月曜日の営業とさせていただきます。●悪天候等により、営業を中止する場合がございますので、ご来店前に、お問い合わせを頂けますと幸いでございます。●,2022-05-19T15:00:16Z
139.3702554,0000300002,35.6654296,0,エネオスハチオウジタカクラスイソステーション,ENEOS Hachiouji-takakura Hydrogen Station,固定式（オフサイト）,192-0033,営業日：月・水～日、 定休日：火・祝日,https://www.eneos.co.jp,82MPa,トウキョウトハチオウジシタカクラマチ,ENEOS　八王子高倉水素ステーション,042-649-4091,東京都八王子市高倉町４８－３,8:30～19:30,クレジットカード（ＥＮＥＯＳホームページをご参照ください）,※4/1より営業時間を変更しています。,2022-05-19T15:00:16Z
138.9476934,0000200026,35.2915088,0,イワタニスイソステーションゴテンバインター,Iwatani Hydrogen Refueling Station in GotembaInterchange,固定式（オフサイト）,412-0025,営業日：月～水曜日、金～日曜日 定休日：木曜日、年末年始,http://www.iwatani.co.jp/jpn/,82,シズオカケンゴテンバシニノオカ,イワタニ水素ステーション 御殿場インター,070-2900-4380,静岡県御殿場市二の岡1-9-20,9:00-17:00,クレジットカードのみ（現金の取り扱いはございません。）,"【お知らせ】
４月１より営業時間を9:00～12:00、13:00～17:00
とさせていただきます。",2022-05-18T08:00:09Z
139.6212239,0000100003,35.8662951,0,ウラワスイソステーション,Urawa hydrogen refueling station,固定式（オンサイト）,338-0822,営業日：月木金土日 定休日：火水,http://eee.tokyo-gas.co.jp/product/hydrogen/index.html,82,サイタマケンサイタマシサクラクナカジマ,浦和水素ステーション,050-3359-2243,埼玉県さいたま市桜区中島２－６－１,12:00～18:00,クレジットのみ,"定休日 : 火曜日・水曜日 (祝祭日を除く)
営業時間 12:00 ～ 18:00",2022-05-19T09:00:43Z
139.4987163,0000200042,35.7488043,0,イワタニスイソステーショントウキョウヒガシクルメ,Iwatani Hydrogen Refueling Station in Tokyohigasikurume,固定式（オフサイト）,203-0044,営業日：月、火、木～日 定休日：水、年末年始,http://www.iwatanigas.co.jp/,82,トウキョウトヒガシクルメシヤナギクボ,イワタニ水素ステーション 東京東久留米,070-7813-0537,東京都東久留米市柳窪1-10-2,9：00～12：00、13：00～17：00,クレジットカード,,2022-05-19T08:00:05Z
140.9096554,0002200001,37.0001995,0,イワキカシマスイソステーション,iwakikasima@suisostation,固定式（オフサイト）,971-8141,営業日：平日・土曜・日曜・祝日 定休日：年末年始 ,http://nemoto-group.co.jp,82MPa,フクシマケンイワキシカシママチハシリグマアザヨンタンダイチバンイチ,いわき鹿島水素ステーション,0246-46-1708,福島県いわき市鹿島町走熊字四反田1番1,平日 9：00～19：00　　土曜・日曜・祝日 14：00～18：00,各種クレジット　当社発行の法人カード,"◆営業時間◆
土日祝日の営業時間は14：00～18：00
平日の営業時間は9：00～19：00
お支払いは、クレジットカード払いのみとなっております。（現金では行っておりません。）
宜しくお願い致します。
",2022-05-19T09:50:12Z
139.7114682,0000300030,35.9064734,0,サイタマミドリスイソステーション,Saitamamidori Station,移動式,336-0976,営業日：金、 定休日：月・火・水・木・土日祝日,https://www.eneos.co.jp,82MPa,サイタマケンサイタマシミドリクテラヤマ,ENEOS さいたま緑水素ステーション（移動式ステーション）,080-1005-9649,埼玉県さいたま市緑区美園１－１０（旧表記：寺山１８８－１）,１１：３０～１４：３０,クレジットカード（ＥＮＥＯＳホームページをご参照ください）,※９月末をもって現金決済を終了させていただきます。※１０月より金曜日の営業とさせていただきます。●悪天候等により、営業を中止する場合がございますので、ご来店前に、お問い合わせを頂けますと幸いでございます。●,2022-05-19T15:00:12Z
139.7761439,0000300008,35.9514513,0,エネオスドクタードライブセルフカスカベチュウオウ,ENEOS ENEOS Dr.Drive Self Kasukabe-chuo Station,固定式（オフサイト）,344-0032,営業日：月・水・木・金(第1・３・5)・土・日・祝日 定休日：火・第2・４金曜日(祝日含む),http://www.noe.jx-group.co.jp,82MPa,サイタマケンカスカベシビンゴヒガシ,ENEOS Ｄｒ．Ｄｒｉｖｅセルフ春日部中央ＳＳ,048-797-8401,埼玉県春日部市備後東５丁目１２－５９,08:30-19:30,現金／クレジットカード,"休業のお知らせ
・５月１８日(水) ８：３０～１９日(木)１２：００までメンテナンスのため臨時休業致します。
　　　　　　　　　　　　　       　　　　　　　　　　　",2022-05-19T15:00:05Z
139.35036,0000200032,35.5719516,0,イワタニスイソステーションサガミハラハラチュウオウ,Iwatani Hydrogen Refueling Station in Sagamiharatyuo,固定式（オフサイト）,252-0253,営業日：月～水曜日、金～日曜日 定休日：木曜日,http://www.iwatani.co.jp/jpn/,82,サガミハラシチュウオウクミナミハシモト,イワタニ水素ステーション 相模原中央,070-2900-4377,相模原市中央区南橋本4-9-14,9:00～12:00・13:00～17:00,クレジットカード,"≪営業時間変更のお知らせ≫
4月1日より12時～13時を閉店させて頂きます。
何卒宜しく御願い致します。
",2022-05-18T08:00:06Z
139.6593847,0000200004,35.8170365,0,イワタニスイソステーションサイタマトダ,Iwatani Hydrogen Refueling Station in Saitamatoda,固定式（オフサイト）,335-0021,営業日：月～水曜日、金～日曜日 定休日：木曜日、年末年始,http://www.iwatani.co.jp/jpn/,70MPa,サイタマケントダシニイゾ,イワタニ水素ステーション 埼玉戸田,048-229-4250,埼玉県戸田市新曽２３２３,"9:00～12:00,13:00～17:00",クレジットカード,"【臨時休業のお知らせ】
6月8日（水）は、設備メンテナンスのため、臨時休業とさせていただきます。ご迷惑をお掛けしますが、何卒ご理解のほどよろしくお願い申し上げます。",2022-05-18T08:00:07Z
139.4402583,0002600001,35.6107264,0,ティーケーケースイソステーション,TKK Hydrogen Station ,固定式（オフサイト）,206-0032,営業日：月火水木金土 定休日：日曜日,https://www.tkk-suiso.jp/,８２,トウキョウトタマシミナミノイチーニーサン,ＴＫＫ水素ステーション,042-319-3677,東京都多摩市南野１－２－３,土：10:00～15:00　月火水木金土：9:00～17:00,現金、各種クレジットカード,"
",2022-05-19T08:00:03Z
139.7693495,0000300027,35.894509,0,コシガヤシンメイチョウスイソステーション,Koshigaya Shinmeicyou Station,移動式,343-0805,営業日：木、 定休日：月・火・水・金・土日祝日,https://www.eneos.co.jp,82MPa,サイタマケンコシガヤシシンメイチョウ,ENEOS 越谷神明町水素ステーション（移動式ステーション）,080-1005-9645,埼玉県越谷市神明町２丁目６８,１3：００～１６：００,クレジットカード（ＥＮＥＯＳホームページをご参照ください）,※2021年９月末をもって現金決済を終了しております。※１０月より木曜日の営業とさせていただきます。■悪天候等により、営業を中止する場合がございますので、ご来店前に、お問い合わせ願います。,2022-05-19T15:00:07Z
139.3924597,0000300016,35.5570397,0,エネオスサガミハラチュウオウスイソステーション,Sagamihara Cyuou Station,移動式,252-0229,営業日：火、 定休日：月・水・木・金・土日祝日,https://www.eneos.co.jp,82MPa,カナガワケンサガミハラシチュウオウクヤエイ,ＥＮＥＯＳ　相模原中央水素ステーション（移動式ステーション）,090-2405-7988,神奈川県相模原市中央区弥栄３－６８８３－４,１３：００～１６：００,クレジットカード（ＥＮＥＯＳホームページをご参照ください）,※９月末をもって現金決済を終了させていただきます。※１０月より火曜日の営業とさせていただきます。●悪天候等により、営業を中止する場合がございますので、ご来店前に、お問い合わせを頂けますと幸いでございます。●,2022-05-19T15:00:04Z
139.623789,0000100001,35.747536,2,ネリマスイソステーション,Nerima hydrogen refueling station,固定式（オフサイト）,177-0032,営業日：月・木・金・土・日 定休日：火・水,http://eee.tokyo-gas.co.jp/product/hydrogen/index.html,82MPa,トウキョウトネリマクヤハラ,練馬水素ステーション,050-3456-9755,東京都練馬区谷原1-1-34,13:00～18：00,クレジットのみ,"営業時間：13時～18時　火曜、水曜日休業（祝日は営業）  なお、状況により早めに閉店する場合がありますのでご承知おき願います。宜しくお願い致します。
",2022-05-19T06:43:48Z
139.7346361,0000200041,35.8394651,0,イワタニスイソステーションサイタマカワグチ,Iwatani Hydrogen Refueling Station in Saitamakawaguti,固定式（オフサイト）,333-0833,営業日：月～水、金～日 定休日：木、年末年始,http://www.iwatanigas.co.jp/,82,サイタマケンカワグチシニシアライジュク,イワタニ水素ステーション 埼玉川口,070-7813-0538,埼玉県川口市西新井宿33-1,9：00～12：00、13：00～17：00,クレジットカード,"2022年2月11日より、水素充填のセルフ営業を開始いたします。初回の方は登録にお時間いただきます。
【法定点検休業のお知らせ】
2022年6月6日～6月13日の期間、法定点検休業を予定させていただきます。何卒ご理解のほどよろしくお願い申し上げます。",2022-05-18T08:00:10Z
139.6885186,0000300034,35.7893895,0,トウキョウイタバシスイソステーション,ENEOS Tokyoitabashi Station,移動式,174-0041,営業日：火・木・金、 定休日：月・水・土日祝日,http://www.noe.jx-group.co.jp,82MPa,トウキョウトイタバシクフナド,ENEOS 東京板橋水素ステーション（移動式）,080-1254-3407,東京都板橋区舟渡１－１－５,１１：３０～１３：３０,クレジットカード（ＥＮＥＯＳホームページをご参照ください）,営業日：平日（火曜日・木曜・金曜日）営業時間：１1：3０～１3：3０※スムーズな水素充填の為、ご来店前に下記電話番号へお問い合わせください。,2022-05-19T15:00:03Z
139.3919047,0000300018,35.5248375,0,サガミハラミナミスイソステーション,Sagamihara Minami Hydrogen-Refueling Site,移動式,252-0328,営業日：水、 定休日：月・火・木・金・土日祝日,https://www.eneos.co.jp,82MPa,カナガワケンサガミハラシミナミクアサミゾダイ,ENEOS 相模原南水素ステーション（移動式ステーション）,090-8011-5789,神奈川県相模原市南区麻溝台２３１７－１,１２：３０～１４：３０,クレジットカード（ＥＮＥＯＳホームページをご参照ください）,"※９月末をもって現金決済を終了させていただきます。※１０月より水曜日の営業とさせていただきます。※悪天候等により、営業を中止する場合がございますので、ご来店前に、お問い合わせを頂けますと幸いでございます。※
",2022-05-19T15:00:12Z
139.6115915,0000300003,35.6905918,0,エネオストウキョウスギナミスイソステーション,ENEOS Tokyo-suginami Hydrogen Station,固定式（オフサイト）,168-0081,営業日：月曜日～土曜日、祝日 定休日：日曜日,https://www.eneos.co.jp,82MPa,トウキョウトスギナミクミヤマエ,ENEOS　東京杉並水素ステーション,03-5941-5503,東京都杉並区宮前１－１７－１０,8:30～19:30,クレジットカード,"＊4月1日(金)より営業時間を変更しています。
",2022-05-19T15:00:13Z
139.3844809,0000300001,35.4444379,0,エネオスドクタードライブセルフエビナチュウオウテン,ENEOS Dr.Drive Self Ebina-chuo Station,固定式（オフサイト）,243-0422,営業日：月～土 定休日：日/祝日,https://www.eneos.co.jp,82MPa,カナガワケンエビナシナカシンデン,ENEOS　Dr.Driveセルフ海老名中央店,046-204-8071,神奈川県海老名市中新田３９８－１,8:30 - 19:30,現金／クレジットカード,※5/25（水）は自主点検のため8:30～13:00まで休業いたします。,2022-05-19T15:00:08Z
140.1088626,0000300045,36.0810472,0,エネオスツクバカエキマエスイソステーション,ENEOS Tukuba-Azuma  Hydrogen-Refueling Site,移動式,305-0031,営業日：月・水・金、 定休日：火・木・土日祝日,https://www.eneos.co.jp,82MPa,イバラギケンツクバシアズマ,ENEOS つくば吾妻水素ステーション（移動式）,080-1005-9651,茨城県つくば市吾妻１－２－２,１２：００～１４：００,クレジットカード（ＥＮＥＯＳホームページをご参照ください）,※９月末をもって現金決済を終了させていただきます。※１０月より月、水、金曜日の営業とさせていただきます。●悪天候等により、営業を中止する場合がございますので、ご来店前に、お問い合わせを頂けますと幸いでございます。●,2022-05-19T15:00:12Z
139.317942,0000300033,35.378754,0,イセハラオカザキスイソステーション,Iseharaokazaki Station,移動式,259-1135,営業日：月・水、 定休日：火・木・金・土日祝日,https://www.eneos.co.jp,82MPa,カナガワケンイセハラシオカザキ,ENEOS 伊勢原岡崎水素ステーション（移動式ステーション）,080-1254-3704,神奈川県伊勢原市岡崎４８５８－６,１４：３０～１６：３０,クレジットカード（ＥＮＥＯＳホームページをご参照ください）,※９月末をもって現金決済を終了させていただきます。●悪天候等により、営業を中止する場合がございますので、ご来店前に、お問い合わせを頂けますと幸いでございます。●,2022-05-19T15:00:06Z
139.62403,0000500006,35.632634,0,ニモヒススイソステーションセタガヤ,Nimohyss Hydrogen Station Setagaya,移動式,157-0074,営業日：月曜・水曜・木曜 定休日：火・金・土・日・祝日,http://www.nimohyss.com/station/,82MPa,セタガヤクオオクラ,ニモヒス水素ステーション世田谷,070-3516-5580,世田谷区大蔵１－１－１,10：00～12：30、13：30～16：00,クレジットカードのみ,"
※12：30～13：30は一時閉店します

",2022-05-19T07:00:03Z
139.6020249,0000300050,35.5946117,0,カワサキタカツスイソステーション,ENEOS kawasaki Takatsu Hydrogen station,固定式（オンサイト）,213-0033,営業日：月・火・金・土・日 定休日：水・木・祝,http://www.eneos.com,８２Mpa,カナガワケンカワサキシタカツクシモサクノベ３－６－６,ENEOS 川崎高津水素ステーション,044-872-7255,神奈川県川崎市高津区下作延3-6-6,8:30-19:30,クレジット,※4月1日（金）より、営業時間を月～火・金～日8:30～19:30に拡大しました。※5月9日(月)より5月23日(月)まで法定点検のた休業いたします。,2022-05-19T15:00:11Z
139.7449957,0000500001,35.6923807,0,ニモヒススイソステーションクダン,Nimohyss Hydrogen Station Kudan,移動式,102-0075,営業日：平日のみ 定休日：土・日・祝日,http://www.nimohyss.com/,82MPa,トウキョウトチヨダクサンバンチョウ,ニモヒス水素ステーション九段,080-6252-8363,東京都千代田区三番町６,月曜11:00-13:00、14:00-16:00　 火～金曜9:00-13:00、14:00-16:00　（土・日・祝日休み）※月曜日が祝日の週は、火曜日の営業時間が11:00～15:00となります。大型連休にかかる週の営業日時は変動することがあります。,クレジットカードのみ,"【臨時休業のお知らせ】
5/12（木）～5/20（金）は定期メンテナンスの為休業いたします。
5/23（月）11：00～営業を再開いたします。
※13:00~14:00は一時閉店いたします。",2022-05-11T07:00:03Z
139.5290515,0000300005,35.4921068,0,エネオスヨコハマアサヒスイソステーション,ENEOS Yokohama-asahi Hydrogen Station,固定式（オフサイト）,241-0001,営業日：月～土、祝日 定休日：日,https://www.eneos.co.jp,82MPa,カナガワケンヨコハマシアサヒクカミシラネチョウ,ENEOS　横浜旭水素ステーション,045-465-6991,神奈川県横浜市旭区上白根町１１５１－５,９：３０～１７：００,クレジットカード,　　　　　　　　　　,2022-05-19T15:00:14Z
139.8055279,0000100002,35.729605,0,センジュスイソステーション,Senju hydrogen refueling station,固定式（オンサイト）,116-0003,営業日：平日（月曜日～金曜日） 定休日：土日祝日,http://eee.tokyo-gas.co.jp/product/hydrogen/index.html,82,トウキョウトアラカワクミナミセンジュ,千住水素ステーション,03-5604-8175,東京都荒川区南千住3-28-1,１２：３０～１７：３０,クレジットのみ,"営業時間　12：30～17：30
営業日　　土・日・祝日を除く平日
完全予約制（事前に予約をお願いします。）
支払い　クレジットのみ

",2022-05-19T08:34:44Z
139.71361,0000300028,35.6378137,0,トウキョウメグロスイソステーション,TokyoMeguro Station,固定式（オフサイト）,141-0021,営業日：月曜日～土曜日、 定休日：日祝日,https://www.eneos.co.jp,82MPa,トウキョウトシナガワクカミオオサキ,ENEOS 東京目黒水素ステーション,03-6417-4246,東京都品川区上大崎２丁目２１番１８号,月～土　８：３０～１９：３０,各種クレジット,※5/21（土）は、設備点検のため、9:30からの営業となります。,2022-05-19T15:00:02Z
139.4536113,0000300037,35.4075794,0,フジサワシモツチダナスイソステーション,Fujisawa Shimotsuchidana Station,移動式,252-0807,営業日：木、 定休日：月・火・水・金・土日祝日,https://www.eneos.co.jp,82MPa,カナガワケンフジサワシシモツチダナ,ENEOS　藤沢下土棚水素ステーション（移動式ステーション）,080-1254-3402,神奈川県藤沢市下土棚1767-1,１４：３０～１６：３０,クレジットカード（ＥＮＥＯＳホームページをご参照ください）,※2021年９月末をもって現金決済を終了しております。※１０月より木曜日の営業とさせていただきます。●悪天候等により、営業を中止する場合がございますので、ご来店前に、お問い合わせを願います。,2022-05-19T15:00:09Z
139.4844667,0000300004,35.4341269,0,エネオスドクタードライブセルフカミイイダテン,ENEOS ENEOS Dr.DriveSelf Kami-iida Station,固定式（オフサイト）,245-0018,営業日：月・水～日 定休日：火・祝日,http://www.noe.jx-group.co.jp,82MPa,カナガワケンヨコハマシイズミクカミイイダチョウ,ENEOS Ｄｒ．Ｄｒｉｖｅセルフ上飯田店,045-435-9108,神奈川県横浜市泉区上飯田町３９０６－７,08:30-19:30,現金／クレジットカード,※5/20(金)は月次の設備点検のため8:30～11:00は休業いたします。,2022-05-19T15:00:12Z
139.5912638,0000300019,35.5234614,0,ヨコハマイケアコウホクスイソステーション,Yokohama IKEA Kohoku Hydrogen-Refueling Site,移動式,224-0043,営業日：火、 定休日：月・水・木・金・土日祝日,https://www.eneos.co.jp,82MPa,カナガワケンヨコハマシツヅキクオリモトチョウ,ENEOS 横浜IKEA港北水素ステーション（移動式ステーション）,080-1254-3178,神奈川県横浜市都筑区折本町２０１－１,１１：３０～１４：３０,クレジットカード（ＥＮＥＯＳホームページをご参照ください）,※９月末をもって現金決済を終了させていただきます。※１０月より火曜日の営業とさせていただきます。※悪天候等により、営業を中止する場合がございますので、ご来店前に、お問い合わせを頂けますと幸いでございます。※,2022-05-19T15:00:08Z
139.745662,0000200003,35.655689,0,イワタニスイソステーションシバコウエン,Iwatani Hydrogen Refueling Station in Shiba Park,固定式（オフサイト）,105-0011,営業日：年中無休 定休日：お問い合わせください,http://www.iwatani.co.jp/jpn/,82MPa,トウキョウトミナトクシバコウエン,イワタニ水素ステーション 芝公園,03-5425-1835,東京都港区芝公園4-6-15,9:00～21:00,クレジットカード,"営業時間：9:00~21:00
営業日：年中無休

メンテナンスのため5月17日(火)14:00～休業。",2022-05-19T12:00:02Z
139.7391294,0000300047,35.6337279,0,トウキョウタカナワゲートウェイスイソステーション,ENEOS ENEOS Tokyo Takanawagateway Hydrogen station,固定式（オンサイト）,108-0074,営業日：月火木金土日 定休日：水曜日　祝日,http://www.eneos.co.jp,82Ｍpa,トウキョウトミナトクタカナワ３－２７－２８,ENEOS 東京高輪ゲートウェイ水素ステーション,03-6721-7920,東京都港区高輪3-27-78,08:30-19:30 ,クレジット,※5/9（月）～5/25（水）9:00～16:30の間、充填時間の長い車両のご来店による混雑が予想されます。弊社東京目黒水素ステーションでの充填をご検討ください。,2022-05-19T15:00:13Z
139.6409508,0000300041,35.5422821,0,エネオスヨコハマツナシマスイソステーション,ENEOS ENEOS Yokohamatunashima Hydrogen Station,固定式（オフサイト）,223-0052,営業日：火曜日～日曜日、祝日 定休日：月曜日,https://www.eneos.co.jp,82MPa,ヨコハマシコウホククツナシマヒガシ,ENEOS 横浜綱島水素ステーション,045-717-9431,神奈川県横浜市港北区綱島東４－３－９,8:30～19:30,クレジットカード（ＥＮＥＯＳホームページをご参照ください）,※4/1より営業時間を変更しています。,2022-05-19T15:00:11Z
139.7783838,0000300048,35.6526342,0,トウキョウハルミスイソステーション,ENEOS ENEOS Tokyo Harumi Hydrogen station,固定式（オンサイト）,104-0053,営業日：月火水木金土日 定休日：なし,http://www.eneos.co.jp,82Ｍpa,トウキョウトチュウオウクハルミ4-7-25,ENEOS 東京晴海水素ステーション,03-6228-2015,東京都中央区晴海４－７－２５,09:30-17:00（但し、9:30～11:00はバス専用充填時間帯）,クレジット,,2022-05-19T15:00:09Z
139.6965075,0000200010,35.5686977,0,イワタニスイソステーショントウキョウイケガミ,Iwatani Hydrogen Refueling Station in TokyoIkega,固定式（オフサイト）,146-0082,営業日：月～水曜日、金～日曜日 定休日：木曜日、年末年始,http://www.iwatani.co.jp/jpn/,82MPa,トウキョウトオオタクイケガミ,イワタニ水素ステーション 東京池上,03-6410-4356,東京都大田区池上八丁目１６番５号,9:00～12:00・13:00～17:00,クレジットカード,"≪営業時間変更のお知らせ≫
4月1日より12時～13時を閉店させて頂きます。
",2022-05-18T08:00:10Z
139.7788335,0000100004,35.6416038,0,トヨススイソステーション,Toyosu hydrogen refueling station,固定式（オンサイト）,135-0061,営業日：月、火、水、木、金、土、日 定休日：不定休,https://eee.tokyo-gas.co.jp/product/hydrogen/station/toyosu.html,82MPa,トウキョウトコウトウクトヨス,豊洲水素ステーション,03-5534-8521,東京都江東区豊洲6-5-27,8:45～20：45 ,クレジットのみ,"営業時間8:45～20:45
＊ ご来店前にお電話をお願いいたします。
支払い方法：クレジットカード（現金不可）
電話番号　：03-5534-8521

",2022-05-19T11:35:06Z
139.7555956,0000300046,35.6161609,0,エネオストウキョウオオイスイソステーション,ENEOS Tokyo ooi Hydrogen,固定式（オンサイト）,140-0003,営業日：月～日、祝日 定休日：なし,https://www.eneos.co.jp,82,トウキョウトシナガワクヤシオ,ENEOS　東京大井水素ステーション,03-6412-9977,東京都品川区八潮一丁目２番２号,9:30～17:00,クレジットカード,●5/9（月）～5/25（水）は、法定定期自主検査のため、休業となります。,2022-05-19T15:00:10Z
139.784178,0000200016,35.6347709,0,イワタニスイソステーショントウキョウアリアケ,IwataniHydrogenStationTokyoAriake,固定式（オフサイト）,135-0063,営業日：年中無休 定休日：お問い合わせ下さい。,,82MPa,トウキョウトコウトウクアリアケイッチョウメゴゴウハチバン,イワタニ水素ステーション東京有明,03-6380-7284,東京都江東区有明１丁目5-8,9:00～19:00,クレジットカードのみ,"営業時間：9:00~19:00
営業日：年中無休

",2022-05-19T10:00:03Z
139.8236974,0001600001,35.6679823,0,シンスナスイソステーション,shinsuna hydrogen station,固定式（オフサイト）,136-0075,営業日：日曜～金曜 及び、祝日 定休日：土曜 及び、年末年始,http://www.tomoeshokai.co.jp/show/nbl.html,８２ ＭＰａ,トウキョウトコウトウクシンスナイチーナナーキュウ,新砂水素ステーション,03-6458-6921,東京都江東区新砂１－７－９,１０：００ ～ １７：００,各種クレジットカード、現金、及び 法人メンバーズカード,"・６月１６日（木）は月次点検の為、１２時からの営業となりますので、宜しくお願い致します。
",2022-05-19T08:00:03Z
139.8110895,0000300029,35.6560663,0,ドクタードライブセルフシオミコウエンテン,Dr.Drive Self Shiomikouen Station,固定式（オフサイト）,135-0052,営業日：月曜日、水～日曜日 定休日：火、祝日,https://www.eneos.co.jp,82MPa,トウキョウトコウトウクシオミ,ENEOS Dr.Driveセルフ潮見公園店,03-6666-2236,東京都江東区潮見１－３－２,8:30～19:30,現金、各種クレジット,,2022-05-19T15:00:03Z
139.5434815,0000200034,35.4149132,0,イワタニスイソステーションヨコハマトツカ,Iwatani Hydrogen Refueling Station in YokohamaTotsuka,固定式（オフサイト）,244-0842,営業日：月～水曜日、金～日曜日 定休日：木曜日,http://www.iwatani.co.jp/jpn/,82,カナガワケンヨコハマシトツカクカシオチョウ,イワタニ水素ステーション 横浜戸塚,080-8508-8715,神奈川県横浜市戸塚区柏尾町1005-1,9:00～17:00,クレジットカードのみ,"営業時間：9：00～17：00
定休日：木曜日
2022年2月1日より、水素充填のセルフ営業開始中
",2022-05-18T08:00:08Z
139.9905882,0000300022,35.7979158,0,マツドロッコウダイステーション,Matudorokkodai Station,固定式（オフサイト）,270-2203,営業日：月～土、 定休日：日祝日,https://www.eneos.co.jp,82MPa,チバケンマツドシロッコウダイ,ENEOS 松戸六高台水素ステーション,047-382-6555,千葉県松戸市六高台4-91,月～水:9:30～12:00、13:15～17:00、木～土:8:30～19:30,クレジットカード（ＥＮＥＯＳホームページをご参照ください）,"※5/23(月) 12：00～14：30および6/13(月) 9:30～16:00 は設備メンテナンスのため休業させ頂きます。
当日ご来店の際は事前に営業状況の確認をお願い致します。",2022-05-19T15:00:02Z
139.7242586,0000500003,35.545641,0,ニモヒススイソステーションミナミロクゴウ,Nimohyss Hydrogen Station Minamirokugo,移動式,144-0045,営業日：火曜・金曜日 定休日：月・水・木・土・日･祝日,http://www.nimohyss.com/,82MPa,オオタクミナミロクゴウ,ニモヒス水素ステーション南六郷,070-3516-5580,大田区南六郷１－３１－５,9:00～15:00,クレジットカードのみ,,2022-05-17T06:00:03Z
139.6029861,0000300025,35.424521,0,ヨコハマミナミステーション,Yokohama Minami Station,固定式（オフサイト）,232-0056,営業日：月曜日～土曜日、 定休日：日祝日,https://www.eneos.co.jp,82MPa,カナガワケンヨコハマシミナミクトオリマチ,ENEOS 横浜南水素ステーション,045-341-4501,神奈川県横浜市南区通町4-100,8:30～19:30,各種クレジット,※4/1より営業を月～土8:30～19:30に拡大しました。(注：平日18:45以降と土曜16:45以降1時間程度は充填時間を要する車両の為混雑が予想されますので当該時間以外での来店願います),2022-05-19T15:00:05Z
139.8551378,0000200022,35.6471741,0,イワタニスイソステーショントウキョウカサイ,Iwatani Hydrogen Refueling Station in TokyoKasai,固定式（オフサイト）,134-0086,営業日：年中無休 定休日：ー,http://www.iwatani.co.jp/jpn/,82MPa,トウキョウトエドガワクリンカイチョウ,イワタニ水素ステーション東京葛西,070-2900-4371,東京都江戸川区臨海町1-1-41,9：00－19：00,"クレジットカード(Visa,Master,JCB,Amex,Diners)","営業時間：9：00～19：00
営業日　：年中無休",2022-05-19T10:00:03Z
139.7534485,0000200033,35.5499934,0,イワタニスイソステーションハネダクウコウ,Iwatani Hydrogen Station Haneda Airport,固定式（オフサイト）,144-0041,営業日：木～火 定休日：水曜日,http://www.iwatanigas.co.jp/gas/station.html,82,トウキョウトオオタクハネダクウコウイッチョウメイチバンヨンゴウ,イワタニ水素ステーション 羽田空港,070-2900-4372,東京都大田区羽田空港1丁目1番4号,11:00～19:00,クレジットカード,"営業時間：11:00～19:00
定休日　：水曜日

",2022-05-19T10:00:04Z
139.6459844,0000300013,35.4497111,0,エネオスヨコハマオオサンバシイドウシキスイソステーション,Yokohama Oosanbashi Station,移動式,231-0002,営業日：月・木・金曜日、 定休日：火・水・土日祝日、客船入港日,https://www.eneos.co.jp,82MPa,カナガワケンヨコハマシナカクカイガンドオリ,ＥＮＥＯＳ 横浜大さん橋水素ステーション（移動式ステーション）,090-8008-2977,神奈川県横浜市中区海岸通１－１－４,１０：００～１２：００,クレジットカード（ＥＮＥＯＳホームページをご参照ください）,※2021年９月末をもって現金決済を終了しております。●客船入港スケジュールは、横浜市港湾局HPでご参照願います。悪天候等により営業中止の場合がありますので、ご来店前にお問い合わせ願います,2022-05-19T15:00:14Z
139.7510434,0001100004,35.536066,0,カワサキスイソステーション,Kawasaki Hyrogen Station,固定式（オフサイト）,220-0861,営業日：毎日（週7日営業） 定休日：水曜日午後のみ休業（設備メンテ等にて）、年末年始,https://industry.airliquide.jp/hydrogen-japan,８２,カナガワケンカワサキシカワサキクコジマチョウ,川崎水素ステーション,044-280-6978,神奈川県川崎市川崎区小島町３-９,７：３０～２０：００,クレジットカード,"セルフ充填にはメンバーカード発行が必要です。初回の方は金曜日又は土曜日の午後にお越し下さい。
",2022-05-19T11:00:02Z
139.763098,0000300015,35.4959793,0,エネオスカワサキマリエンスイソステーション,Kawasaki Marien Station,移動式,210-0869,営業日：水、 定休日：月・火・木・金・土日祝日,https://www.eneos.co.jp,82MPa,カナガワケンカワサキシカワサキクヒガシオウギジマ,ＥＮＥＯＳ　川崎マリエン水素ステーション（移動式ステーション）,080-9297-5941,神奈川県川崎市川崎区東扇島３８－１,１０：００～１２：００,クレジットカード（ＥＮＥＯＳホームページをご参照ください）,※９月末をもって現金決済を終了させていただきます。※１０月より水曜日の営業とさせていただきます。■悪天候等により、営業を中止する場合がございますので、ご来店前に、お問い合わせを頂けますと幸いでございます。■,2022-05-19T15:00:04Z
140.0273978,0000300043,35.6596679,0,エネオスチバマクハリステーション,ENEOS Chiba-makuhari  Hydrogen ,固定式（オンサイト）,261-0025,営業日：日～金 定休日：土祝日,https://www.eneos.co.jp,82MPa,チバケンチバシミハマクハマダ,ENEOS 千葉幕張水素ステーション　,043-307-8704,千葉県千葉市美浜区浜田２－４３－５ ,8:30～19:30,クレジットカード,"・4月1日(金)より営業時間を変更しています。
・5月27日（金）は設備点検のため13:00～16:00は休業いたします。",2022-05-19T15:00:14Z
140.0677599,0000300009,35.6775719,0,エネオスドクタードライブセルフタケイシインターテン,ENEOS Dr.Drive Takeisi-inter Station,固定式（オフサイト）,262-0044,営業日：月～土曜日  定休日：日・祝日,https://www.eneos.co.jp,82MPa,チバケンチバシハナミガワクナガサクチョウ,ENEOS　Dr.Driveセルフ武石インター店,043-441-4530,千葉県千葉市花見川区長作町２１－１,9:30～11:45、13:00～17:00,現金／クレジットカード,,2022-05-19T15:00:06Z
140.1290087,0001000002,35.6857872,0,チバキタスイソステーション,chiba-kita hydrogen station,固定式（オフサイト）,262-0004,営業日：月曜日～土曜日 定休日：日曜日、祝日、年末年始,https://www.idemitsu.com/jp/carlife/idemitsu/hydrogen/index.html,82,チバシハナミガワクダイニチチョウ,千葉北水素ステーション,043-215-3928,千葉市花見川区大日町1362-1,9:00～17:30,クレジットカードのみ,"

",2022-05-19T08:30:03Z
140.3874114,0001000001,35.766594,0,ナリタスイソステーション,Narita Hydrogen Station,固定式（オフサイト）,282-0005,営業日：月～土 定休日：日・祝日、年末年始,,82MPa,ナリタシキノネアザカミダイ,成田水素ステーション,0476-30-3210,成田市木の根字神台24番地,9：00～17：30,クレジットカードのみ,,2022-05-19T08:30:02Z
